{"type":"Feature","properties":{"id":"olle-7248522","course":"10","name_ko":"올레 10코스","name_en":"Olle Route 10","relation_id":7248522,"source_url":"https://www.openstreetmap.org/relation/7248522","license":"ODbL-1.0","fetched_at":"2026-09-10T16:03:33Z","source_updated_at":"2025-10-11T03:24:12Z","incomplete":true,"simplification_m":8,"license_url":"https://opendatacommons.org/licenses/odbl/1-0/"},"geometry":{"type":"MultiLineString","coordinates":[[[126.3138208,33.233574],[126.3140939,33.233544],[126.3144091,33.2342141],[126.3144149,33.2344659],[126.3142058,33.2345901],[126.3145215,33.2348337],[126.3144748,33.2350649],[126.3147055,33.2355815],[126.3145298,33.2357587],[126.3146196,33.2359831],[126.3165071,33.2374108],[126.3186778,33.2385294],[126.3203326,33.2390945],[126.3203756,33.239365],[126.3209456,33.2397778],[126.321124,33.2400493],[126.3210207,33.2401805],[126.3210811,33.2404413],[126.321407,33.2403364],[126.3217905,33.2404575],[126.3222238,33.2401009],[126.3228406,33.2400145],[126.3231128,33.2403196],[126.3240194,33.2400403],[126.3242501,33.2401098],[126.3247711,33.2396769],[126.3249582,33.2396589],[126.3251285,33.2398047],[126.3251594,33.240434],[126.3254571,33.240259],[126.3257025,33.24048],[126.3260727,33.2405708],[126.3266534,33.240351],[126.3267928,33.2404777],[126.3267218,33.241033],[126.3278067,33.2411036],[126.3285832,33.2414883],[126.3290814,33.2411305],[126.3298546,33.2410879],[126.3303561,33.2413066],[126.3305198,33.2411777],[126.3304058,33.241107],[126.3316256,33.2412837],[126.3318133,33.2410683],[126.3320359,33.2410548],[126.3320678,33.240899],[126.3330026,33.2405659],[126.3338969,33.2405592],[126.3339175,33.2406986]],[[126.3138161,33.2336695],[126.3130649,33.2337976],[126.3120446,33.2337885],[126.3106856,33.2333317]],[[126.3087426,33.2324259],[126.3097019,33.2323401],[126.3106856,33.2333317],[126.3107335,33.233536],[126.3107335,33.2343443],[126.3094424,33.2346834],[126.308897,33.2352405]],[[126.3053479,33.241502],[126.3053379,33.2415781]],[[126.306375,33.2284865],[126.3064481,33.2281379],[126.3052848,33.2277806],[126.3050903,33.2281012],[126.3012051,33.227011],[126.3000559,33.2258152],[126.2995602,33.2248861],[126.2979472,33.2238707],[126.2946384,33.220181],[126.2947097,33.2188561],[126.2936692,33.217127],[126.2937542,33.2166177],[126.2936337,33.2161344],[126.2941614,33.2152905],[126.2941924,33.2147434],[126.2939616,33.2142738],[126.2933801,33.2137835],[126.2929108,33.2130763],[126.2922133,33.2117387],[126.2915713,33.2097034],[126.2915002,33.2081586],[126.2911421,33.2075142],[126.2907331,33.2072146],[126.290855,33.2070322],[126.2903015,33.206499],[126.2900197,33.2056699],[126.2900089,33.2051499],[126.2897988,33.2051583],[126.2896673,33.2053105],[126.2897133,33.2048915],[126.2895609,33.2042989],[126.2897119,33.2037995],[126.289959,33.2035531],[126.2916919,33.202727],[126.2927154,33.2024056],[126.2931888,33.2017402],[126.2933792,33.2011723],[126.2936571,33.1995267],[126.2934849,33.1990296],[126.2935393,33.1986633],[126.2943112,33.1981958],[126.2943937,33.1977341],[126.2937197,33.197472],[126.2930767,33.1968451],[126.2929015,33.1968203],[126.2924405,33.1963513],[126.2919497,33.1960722],[126.2911161,33.1957515],[126.2901126,33.1958024],[126.2897818,33.1954217],[126.2892686,33.1956219],[126.288975,33.1962145],[126.2887422,33.1963316],[126.2882433,33.1963254],[126.2877072,33.1967065],[126.287459,33.1971687],[126.2873932,33.1976559],[126.2875179,33.1979472],[126.2873155,33.1987375],[126.2874401,33.1990621],[126.2873827,33.1993608],[126.2875336,33.1996085],[126.2871636,33.20039],[126.2866606,33.2005877],[126.2870495,33.2015975],[126.2877303,33.2026046],[126.288127,33.2037887],[126.2875974,33.2043012],[126.2874582,33.2047688],[126.2863062,33.2051403],[126.2856819,33.2054691],[126.2846372,33.2057361],[126.2840968,33.2056991],[126.2835746,33.2061819],[126.2828888,33.2060234],[126.2819229,33.2061379],[126.2818051,33.2058365],[126.280852,33.2058713],[126.2805781,33.2058028],[126.28051,33.2056489],[126.2763046,33.2051384],[126.2733981,33.2068111],[126.2729716,33.2066921],[126.2726584,33.2061175],[126.2719175,33.2065182],[126.2716573,33.2067438],[126.2708365,33.2088713],[126.2703437,33.2087722],[126.2698576,33.2089554],[126.2675683,33.2089756],[126.2671861,33.2084347],[126.2682063,33.206798],[126.2675118,33.2065945],[126.2658826,33.2067707],[126.2652658,33.2073019],[126.2647175,33.2073301],[126.2643616,33.2075066],[126.2640096,33.2079202],[126.2632714,33.2100539],[126.2624601,33.2105296],[126.2623469,33.2107573],[126.2607287,33.211637],[126.2585433,33.2112365],[126.256124,33.2112796],[126.2553747,33.2116095],[126.2551782,33.2117997],[126.2556238,33.2121579],[126.2558831,33.2151348],[126.2561827,33.2161591],[126.2566233,33.2169839],[126.2565925,33.2173113],[126.2556651,33.2177211],[126.2551198,33.217734],[126.2546083,33.2184325],[126.2543772,33.2185382],[126.2544789,33.218832],[126.2527925,33.2191596]]]}}
