{"type":"Feature","properties":{"id":"olle-9173551","course":"19","name_ko":"올레 19코스","name_en":"Olle Route 19","relation_id":9173551,"source_url":"https://www.openstreetmap.org/relation/9173551","license":"ODbL-1.0","fetched_at":"2026-09-10T16:03:33Z","source_updated_at":"2026-02-28T14:25:15Z","incomplete":true,"simplification_m":8,"license_url":"https://opendatacommons.org/licenses/odbl/1-0/"},"geometry":{"type":"MultiLineString","coordinates":[[[126.64191,33.5396831],[126.6411916,33.5405058],[126.6427451,33.5414637],[126.6429762,33.5413865],[126.6431477,33.5414765],[126.6431776,33.541688],[126.6429162,33.5419927],[126.643478,33.5424403],[126.6439171,33.5437722],[126.6441987,33.5440416],[126.6448135,33.5441866],[126.6452783,33.5445099],[126.6453253,33.544881],[126.6456525,33.5453706],[126.6455868,33.5458355],[126.6461715,33.5462547],[126.6454969,33.5468639],[126.6453199,33.5471735],[126.6438675,33.5478407],[126.6437584,33.5479952],[126.6426739,33.5483649],[126.6423976,33.5485874],[126.6420168,33.5486053],[126.641774,33.5489115],[126.641306,33.5490143],[126.6411237,33.5493943],[126.6413599,33.5497214],[126.6412954,33.5505713],[126.6423502,33.551587],[126.64274,33.5516961],[126.6436181,33.5516692],[126.6439601,33.5519516],[126.6436241,33.5529982],[126.6437978,33.5531472],[126.6441321,33.5530995],[126.6441057,33.5537345],[126.6446119,33.5549335],[126.644755,33.5549696],[126.6455432,33.554492],[126.6463016,33.5547513],[126.6468443,33.5545976],[126.6475891,33.553618],[126.6493168,33.5528494],[126.6493566,33.5524948],[126.6491581,33.5521595],[126.6485198,33.5517538],[126.6487625,33.5510139],[126.648383,33.5507132],[126.6481698,33.5499744],[126.6476344,33.5495652],[126.6475808,33.5491623],[126.6481741,33.5489377],[126.6494836,33.5486993],[126.6510692,33.5488349],[126.651252,33.5486858],[126.6518321,33.5472999],[126.6524949,33.5476509],[126.6538822,33.5476214],[126.6552003,33.5467877],[126.6555173,33.546412],[126.6555386,33.545884],[126.6561862,33.5456835],[126.6572586,33.5456935],[126.6575615,33.5458445],[126.6584831,33.5454565],[126.6590173,33.5453685],[126.659309,33.545711],[126.6604627,33.5457635],[126.6607147,33.5456316],[126.6608217,33.545416],[126.6610057,33.5454339],[126.6611481,33.5452819],[126.6618048,33.5458747],[126.6620858,33.5458377],[126.6625913,33.5448804],[126.6633591,33.5443523],[126.6637722,33.5435665],[126.6655666,33.5427554],[126.6684274,33.5426777],[126.6684256,33.5428172],[126.6698766,33.542844],[126.6698958,33.5432796],[126.6708587,33.54385],[126.6712941,33.5443841],[126.6715142,33.5443213],[126.6716912,33.5444659],[126.6724436,33.5446474],[126.673196,33.5443909],[126.6743068,33.5444665],[126.6746693,33.5450129],[126.6746532,33.5461848],[126.6750227,33.5463948],[126.6762367,33.5466801],[126.6767851,33.5471617],[126.6775815,33.547397],[126.6771976,33.5480426],[126.6774243,33.5481746],[126.6775959,33.5486805],[126.6770631,33.5499301],[126.6774219,33.5500303],[126.6779442,33.5506828],[126.6780997,33.5507205],[126.6779345,33.5509442],[126.6800791,33.5509487],[126.6802829,33.5507609],[126.6805189,33.5507609],[126.6815382,33.5498489],[126.6820317,33.5496432],[126.6824716,33.5492498],[126.6827827,33.5491693],[126.6834586,33.5483557],[126.6843599,33.5478996],[126.6846317,33.5478694],[126.6850861,33.5480873],[126.6856252,33.5480799],[126.6859696,33.5476838],[126.6866585,33.5475593],[126.6871563,33.5469458],[126.6878094,33.5464953],[126.6885175,33.5463556],[126.6889035,33.5461013],[126.6890145,33.5462438],[126.6889608,33.5468185],[126.6897526,33.5473654],[126.6897602,33.548127],[126.6902806,33.5482074],[126.690404,33.5483371],[126.6903619,33.5487887],[126.689936,33.5491262],[126.6899412,33.5496715],[126.6903568,33.5500974],[126.690633,33.5502131],[126.6912995,33.5501661],[126.6911527,33.5505575],[126.6915964,33.5508606],[126.692566,33.5505547],[126.6926413,33.5507942],[126.692913,33.5510179],[126.6936757,33.5514237],[126.6942791,33.5502187],[126.6946784,33.5505019],[126.6952683,33.5501145],[126.6957658,33.5507907],[126.6959539,33.5512878],[126.6965927,33.5510249],[126.6969669,33.5506968],[126.6974725,33.5506176],[126.697971,33.5498401],[126.6981676,33.5499639],[126.6982998,33.5498214],[126.6994885,33.550503],[126.6999974,33.5496504],[126.701101,33.5488562],[126.7033327,33.5482493],[126.7036867,33.5484385],[126.704443,33.5482671],[126.7046498,33.5480254],[126.7051931,33.5478068],[126.7054152,33.5473805],[126.7059584,33.5478819],[126.7065078,33.5471665],[126.7065433,33.5466455],[126.7068924,33.5466731],[126.7073586,33.5470321],[126.7078173,33.5469596],[126.7079763,33.5473757],[126.7084898,33.547552],[126.7088864,33.5479007],[126.7095949,33.5481346],[126.7098039,33.547204],[126.7101728,33.5467992],[126.7106746,33.5465452],[126.7105599,33.5437862],[126.7109151,33.5435635],[126.7111713,33.5430971],[126.7110999,33.5428263],[126.7114263,33.5422583],[126.7117971,33.5420045],[126.7122133,33.5420085],[126.7124434,33.5417084],[126.7142121,33.5417205],[126.7142839,33.5412403],[126.7144724,33.5411949],[126.7149438,33.5407077],[126.7153286,33.5409718],[126.7158401,33.5406175],[126.7161023,33.5407714],[126.7163268,33.5407181],[126.7163935,33.5403365],[126.7166923,33.5400623],[126.7168728,33.5393053],[126.7175483,33.5379861],[126.7191852,33.5363378],[126.719854,33.5352215],[126.721052,33.5344361],[126.7216855,33.5344409],[126.7218798,33.5348422],[126.722069,33.5349023],[126.7226542,33.5347174],[126.722985,33.5348539],[126.7239651,33.534752],[126.7243136,33.5351671],[126.7250821,33.5354313],[126.7261408,33.5360416],[126.7261854,33.5362172],[126.7266074,33.5365571],[126.7266772,33.5367846],[126.7264993,33.5371476],[126.7271003,33.5372468],[126.727932,33.5367483],[126.7281585,33.5369105],[126.7286841,33.5370005],[126.7287955,33.5375964],[126.7289778,33.5378457],[126.7288451,33.5385065],[126.7290256,33.5390316],[126.728746,33.5397115],[126.7292333,33.5400692],[126.7291668,33.5406219],[126.7302927,33.540279],[126.730375,33.5403603],[126.7310339,33.5399542],[126.7313403,33.5400907],[126.7319821,33.5398733],[126.7321549,33.5402006],[126.7325453,33.5403422],[126.7332615,33.5404725],[126.7335124,33.5402521],[126.7338155,33.5405315],[126.7338232,33.5410687],[126.734235,33.5419555],[126.7346598,33.5420064],[126.7352314,33.5424216],[126.73659,33.5426262],[126.7373023,33.5436537],[126.7373429,33.5439116],[126.7386313,33.5454874],[126.7392328,33.5456064],[126.7396378,33.5458981],[126.7399053,33.5459166],[126.7403345,33.5463531],[126.7410151,33.5463978],[126.7414768,33.5466744],[126.7416196,33.5471209],[126.7427778,33.5484054],[126.7435192,33.5495599],[126.7436154,33.5499563],[126.7435307,33.5513717],[126.7443285,33.5527655],[126.7438867,33.5531646],[126.7433017,33.5544417],[126.7430381,33.5547367],[126.7429086,33.5553529],[126.743131,33.5553716],[126.7431089,33.5556145],[126.7429057,33.5560708],[126.7425737,33.556271],[126.742576,33.5565438],[126.7432536,33.5569371],[126.7438553,33.5569932],[126.744999,33.5575046]]]}}
