{"type":"Feature","properties":{"id":"olle-5535857","course":"20","name_ko":"올레 20코스","name_en":"Olle Route 20","relation_id":5535857,"source_url":"https://www.openstreetmap.org/relation/5535857","license":"ODbL-1.0","fetched_at":"2026-09-10T16:03:33Z","source_updated_at":"2026-08-22T15:49:08Z","incomplete":true,"simplification_m":8,"license_url":"https://opendatacommons.org/licenses/odbl/1-0/"},"geometry":{"type":"MultiLineString","coordinates":[[[126.7498529,33.5577682],[126.7501943,33.5577958],[126.7502845,33.5580103],[126.7504762,33.5580825],[126.7511701,33.5577278],[126.7513875,33.5578747],[126.7519202,33.5578316],[126.7525535,33.5573936],[126.7528216,33.5576992],[126.7535992,33.5581896],[126.7536621,33.5588149],[126.7538821,33.5589821],[126.7542922,33.5587928],[126.7544537,33.5584869],[126.7548081,33.5584537],[126.755076,33.5582901],[126.7554432,33.5577686],[126.7577134,33.5575626],[126.7580812,33.5573651],[126.7587331,33.5567024],[126.7599172,33.5574592],[126.760522,33.5580547],[126.7619183,33.5584049],[126.762453,33.5589711],[126.7626398,33.5593116],[126.7624518,33.5604801],[126.76264,33.5611794],[126.7622194,33.5614816],[126.7617952,33.5615892],[126.7615191,33.5621904],[126.7617287,33.5622893],[126.7625763,33.5622804],[126.7640125,33.562748],[126.7642501,33.5630083],[126.763558,33.5632459],[126.7634078,33.5635901],[126.7635955,33.5636929],[126.7635258,33.5645959],[126.7638691,33.565016],[126.7652263,33.5654049],[126.7654963,33.5651861],[126.765913,33.5651412],[126.766385,33.5646987],[126.7664762,33.5643232],[126.7671307,33.5639795],[126.7688694,33.5638158],[126.7702228,33.5639798],[126.7706926,33.5641136],[126.7716424,33.5647327],[126.772321,33.5648213],[126.7764797,33.5639231],[126.7780227,33.5638072],[126.7805477,33.5627938],[126.7810669,33.5631431],[126.7813721,33.5630875],[126.7821332,33.5622567],[126.7834185,33.5619445],[126.7839799,33.5615456],[126.7839586,33.5613223],[126.7844212,33.5610223],[126.7848484,33.5613671],[126.785517,33.5609773],[126.7863635,33.5607165],[126.7865217,33.5605517],[126.7865536,33.5599104],[126.7867185,33.5596036],[126.7889363,33.5583148],[126.7899978,33.5571216],[126.7910587,33.5564922],[126.7913441,33.5564404],[126.7915567,33.5569194],[126.7925207,33.5577865],[126.7932498,33.5575269],[126.7931826,33.5572674],[126.7936604,33.5571642],[126.7936745,33.5570138],[126.7940855,33.5570074],[126.794598,33.556604],[126.7948237,33.55674],[126.7952302,33.556341],[126.7963007,33.5556661],[126.7978942,33.5550513],[126.7992097,33.5550323],[126.7997682,33.5541267],[126.8001916,33.5541894],[126.8001173,33.5543542],[126.8020615,33.554369],[126.8027433,33.5545656],[126.8054868,33.5542646],[126.8055434,33.5557043],[126.8053372,33.5564857],[126.8059843,33.5566702],[126.8077554,33.556419],[126.8077119,33.557224],[126.808001,33.5574091],[126.8083141,33.5573079],[126.8083984,33.5574322],[126.8087323,33.5574515],[126.8093648,33.5573004],[126.8094059,33.5570239],[126.810197,33.5560323],[126.8097148,33.5552283],[126.8093597,33.5549035],[126.8099746,33.5544332],[126.8110993,33.5543563],[126.8113652,33.554233],[126.8110293,33.5537327],[126.8112521,33.552971],[126.8114277,33.5528144],[126.8115009,33.5524887],[126.8119984,33.5523082],[126.8120423,33.5521545],[126.8122517,33.5521855],[126.8126528,33.5519339],[126.8136651,33.5521963],[126.8144066,33.5514733],[126.8150599,33.5515188],[126.8158898,33.5513169],[126.8162659,33.5514036],[126.8172119,33.5510965],[126.8179366,33.5516888],[126.8184688,33.5512005],[126.8187269,33.550641],[126.8190957,33.550227],[126.8191431,33.5495591],[126.819432,33.549202],[126.8194723,33.5489088],[126.8200953,33.5486175],[126.8207633,33.54877],[126.8214625,33.5486759],[126.8221586,33.5490601],[126.8225597,33.5490113],[126.8231047,33.5491883],[126.8237065,33.5491407],[126.8239577,33.5494154],[126.8246375,33.5496933],[126.8247092,33.5495632],[126.8248944,33.5495829],[126.8250829,33.5497849],[126.8251044,33.5500567],[126.8253123,33.5499393],[126.825384,33.5496543],[126.8244094,33.5485395],[126.824435,33.5482787],[126.8241402,33.5478002],[126.8242508,33.5472644],[126.8239865,33.5465261],[126.824346,33.5461419],[126.8240334,33.5455279],[126.8241201,33.5452911],[126.8244488,33.5450128],[126.8246009,33.5450661],[126.8250938,33.545608],[126.8258515,33.5459352],[126.8262389,33.5455953],[126.8266066,33.5454642],[126.8266375,33.5451971],[126.8274983,33.5446118],[126.8273408,33.5440773],[126.8273607,33.5434092],[126.8279494,33.542484],[126.8279949,33.5415072],[126.8282113,33.5411093],[126.8286401,33.5412802],[126.8292462,33.5408819],[126.8296483,33.5402977],[126.8300242,33.540655],[126.8308723,33.5405295],[126.8310402,33.5403007],[126.8314307,33.5401929],[126.8315474,33.5398682],[126.8329404,33.5390485],[126.8330593,33.539219],[126.8329037,33.5394453],[126.8331369,33.5397052],[126.8333787,33.5397682],[126.833703,33.5397651],[126.8348566,33.5391121],[126.835253,33.5387345],[126.8355786,33.5381091],[126.8356741,33.5363686],[126.835857,33.5357755],[126.8359601,33.5358884],[126.8374104,33.5348811],[126.8375526,33.5351045],[126.8380876,33.5347727],[126.8383672,33.5348971],[126.8385809,33.5346965],[126.8393133,33.5344821],[126.8398062,33.5339704],[126.8401688,33.5340746],[126.8407307,33.5325708],[126.8415509,33.531585],[126.8408517,33.5307375],[126.8410171,33.5306154],[126.8411292,33.5305454],[126.8413666,33.530737],[126.8423077,33.5301387],[126.8425079,33.5301772],[126.8433734,33.5295299],[126.8435337,33.5298061],[126.8441938,33.5295426],[126.8458933,33.5301367],[126.8466018,33.5296413],[126.8473868,33.5293752],[126.8479069,33.5296712],[126.8478259,33.5299008],[126.8493372,33.5288102],[126.8504023,33.5278457],[126.8506686,33.5276892],[126.8509815,33.5278332],[126.8513392,33.527398],[126.8514591,33.5269227],[126.8518301,33.5269196],[126.8522218,33.526731],[126.8522521,33.5265307],[126.852683,33.5261057],[126.8528933,33.526673],[126.8530841,33.5265906],[126.8533123,33.5267434],[126.8538405,33.5267922],[126.8542044,33.527147],[126.8544429,33.5270393],[126.8546483,33.5273632],[126.8564092,33.5265702],[126.8581364,33.5261279],[126.8579828,33.5253211],[126.8582997,33.5250066],[126.8608982,33.5246223],[126.8617083,33.5246946],[126.8620643,33.5246087],[126.862456,33.5232602],[126.8626812,33.5232489],[126.8627588,33.523019]],[[126.7492021,33.5577153],[126.7486999,33.5580084],[126.7482689,33.5578461],[126.7480034,33.5574626],[126.7478021,33.5573878],[126.7472051,33.5576177],[126.7470067,33.5579757],[126.7468231,33.5580619],[126.7463515,33.5580634],[126.7459997,33.5579991],[126.745614,33.5576836],[126.744999,33.5575046]]]}}
