{"type":"Feature","properties":{"id":"olle-6089470","course":"3-A","name_ko":"올레 3-A코스","name_en":"Olle Route 3-A","relation_id":6089470,"source_url":"https://www.openstreetmap.org/relation/6089470","license":"ODbL-1.0","fetched_at":"2026-09-10T16:03:33Z","source_updated_at":"2026-07-25T22:59:44Z","incomplete":true,"simplification_m":8,"license_url":"https://opendatacommons.org/licenses/odbl/1-0/"},"geometry":{"type":"MultiLineString","coordinates":[[[126.8530235,33.392499],[126.8529752,33.3922449],[126.8532649,33.3918323],[126.8542453,33.3914393],[126.8551659,33.3915073],[126.8558981,33.3920358],[126.8560316,33.3935735],[126.8559061,33.3941543],[126.8557774,33.3944398],[126.8546938,33.3947925],[126.8541339,33.3951578],[126.8541682,33.3960947],[126.8543252,33.3965062],[126.8557696,33.3965797],[126.8562448,33.3969538],[126.8565908,33.3969941],[126.8573298,33.3966011],[126.8581875,33.3969579],[126.8587065,33.3965391],[126.8592309,33.396491],[126.8595286,33.3961752],[126.859931,33.3960126],[126.8597747,33.395729],[126.8599261,33.3957141],[126.8602286,33.3962241],[126.862358,33.3970442],[126.8639206,33.397954],[126.8647063,33.3977685],[126.8653916,33.397837],[126.8662622,33.3985071],[126.8667235,33.3985541],[126.8679567,33.3990612],[126.8683512,33.3984079],[126.8686409,33.3983723],[126.869092,33.3980789],[126.8693229,33.3979974],[126.8703937,33.3982014],[126.8707261,33.397922],[126.870975,33.397359],[126.8714698,33.3967913],[126.8712674,33.3962416],[126.8717314,33.3951107],[126.8723412,33.39513],[126.8726087,33.3950175],[126.872713,33.3946371],[126.8729808,33.3943294],[126.8740575,33.3946502],[126.8751598,33.3944487],[126.8753758,33.3940406],[126.8764342,33.3934368],[126.8768999,33.3934715],[126.8779813,33.392776],[126.8786394,33.392762],[126.8785009,33.3918507],[126.8786442,33.3918387],[126.8788654,33.3922346],[126.8796606,33.3927045],[126.8799588,33.3934418],[126.8809747,33.3936929],[126.8818206,33.3934624],[126.8823709,33.3937579],[126.8828228,33.3942701],[126.8829151,33.3945604],[126.88234,33.3954275],[126.8823744,33.3955422],[126.8827005,33.395621],[126.8830009,33.395965],[126.8829816,33.3962173],[126.8833365,33.3968333],[126.883782,33.3969753],[126.8844343,33.3980001],[126.8846918,33.3980932],[126.8858934,33.3978496],[126.8864599,33.3979642],[126.886829,33.398301],[126.8877903,33.3985446],[126.8882023,33.3990964],[126.8889885,33.39899],[126.8899031,33.3990787],[126.8901898,33.3993225],[126.8911018,33.3995557],[126.8916744,33.3998463],[126.8925473,33.3992511],[126.8931156,33.3991321],[126.8936129,33.3991886],[126.8939818,33.3993627],[126.8947677,33.3994614],[126.8948587,33.3997323],[126.8950912,33.3996684],[126.8966828,33.4000565],[126.8976678,33.4006568],[126.898113,33.4006839],[126.8984482,33.4010485],[126.8997753,33.4004091],[126.900263,33.4003728],[126.9007303,33.4000369],[126.9009306,33.4005052],[126.9010972,33.4005705],[126.9018645,33.4004074],[126.9024324,33.4004193],[126.9034196,33.4009604]],[[126.8542453,33.3914393],[126.8540863,33.3906005],[126.8544221,33.3905968],[126.8544147,33.3902385],[126.856457,33.3897102],[126.8574253,33.3887039],[126.8570039,33.3884999],[126.8564607,33.3885582],[126.8562081,33.3883739],[126.8555606,33.388832],[126.8544374,33.3888324],[126.8537168,33.3885167],[126.853399,33.3881719],[126.853631,33.3876299],[126.8541312,33.3872458],[126.8547849,33.3868828],[126.8554603,33.3867878],[126.8558784,33.3863709],[126.8557121,33.3859588],[126.8551811,33.3856453],[126.8550619,33.3852279],[126.8547396,33.3850162],[126.8551568,33.3842703],[126.8556628,33.3836915],[126.8562177,33.3821262],[126.8567688,33.3820298],[126.8575592,33.3822908],[126.8587184,33.3821668],[126.8589039,33.3820352],[126.8601517,33.3822983],[126.8604649,33.3820973],[126.8609061,33.3821757],[126.8611609,33.3818442],[126.8617456,33.3817602],[126.8623082,33.3802607],[126.8629291,33.3800787],[126.8644989,33.3791672],[126.8652218,33.3784818],[126.8656764,33.3777203],[126.8644996,33.3772382],[126.8632792,33.3770971],[126.8625343,33.3763601],[126.861855,33.3766043],[126.8606259,33.3765841],[126.8601042,33.3758965],[126.8594631,33.3760343],[126.8592298,33.3764284],[126.8588596,33.3766513],[126.8577398,33.3762336],[126.85731,33.3763361],[126.8551407,33.3750949],[126.8540062,33.3741833],[126.8535651,33.3740917],[126.8525553,33.374177],[126.8521483,33.3740587],[126.8520418,33.373897],[126.8520894,33.3732776],[126.8549883,33.3722953],[126.8576261,33.3718672],[126.8594902,33.3718115],[126.8608192,33.3714237],[126.859779,33.3706798],[126.8592432,33.3701282],[126.8583333,33.3696141],[126.8585881,33.3686011],[126.8598132,33.3679907],[126.859846,33.3676082],[126.8602759,33.3668939],[126.8603061,33.3665574],[126.8598923,33.3650531],[126.8597421,33.3648554],[126.8593337,33.3646683],[126.8597287,33.3644941],[126.8601069,33.3645238],[126.8613353,33.3641867],[126.8618872,33.3636642],[126.8626161,33.3637577],[126.8630167,33.3636205],[126.8637799,33.362901],[126.8644894,33.3631752],[126.8652668,33.363155],[126.8653247,33.3626571],[126.8657502,33.3624699],[126.8659093,33.3619214],[126.865331,33.3603065],[126.8673042,33.3601309]]]}}
