{"type":"Feature","properties":{"id":"olle-6107767","course":"14","name_ko":"올레 14코스 · OSM 일부 구간","name_en":"Olle Route 14 · partial OSM section","relation_id":6107767,"source_url":"https://www.openstreetmap.org/relation/6107767","license":"ODbL-1.0","license_url":"https://opendatacommons.org/licenses/odbl/1-0/","fetched_at":"2026-09-10T17:07:35Z","source_updated_at":"2018-12-25T04:05:22Z","incomplete":true,"simplification_m":8},"geometry":{"type":"MultiLineString","coordinates":[[[126.2135775,33.3748543],[126.2139118,33.3747407],[126.214724,33.3747796],[126.2150753,33.3746371],[126.2162378,33.3750674]],[[126.2153075,33.374525],[126.2160977,33.3741363],[126.2166517,33.3737036],[126.2170958,33.373565],[126.2175768,33.3728478],[126.2185761,33.3725267],[126.2189396,33.3720142],[126.2196474,33.3717881],[126.2196163,33.3716215],[126.2222464,33.3718025],[126.224191,33.3715774],[126.2252742,33.3708423],[126.2253712,33.37103],[126.2262922,33.3702863],[126.226441,33.3686533],[126.226732,33.3679488],[126.2298159,33.3653817],[126.2304171,33.3643966],[126.2302893,33.3643082],[126.2309988,33.3634843],[126.2315472,33.3622103],[126.2326181,33.3605368],[126.2345497,33.360379],[126.2353819,33.3599919],[126.2360954,33.3594645],[126.2360316,33.3592918],[126.2364825,33.3591367],[126.2369439,33.3587424],[126.2370833,33.3585363],[126.2359783,33.3577298],[126.2358242,33.3573991],[126.2359764,33.3570943],[126.2357589,33.3568036],[126.2353803,33.3567191],[126.2351951,33.3562959],[126.2360934,33.3543635],[126.2362899,33.3542991],[126.2373408,33.3528636],[126.2377592,33.3525769],[126.2387248,33.352299],[126.2384673,33.3515194],[126.2381664,33.3511926],[126.2370747,33.3510397],[126.2362057,33.3506729],[126.2354276,33.3501385]]]}}
