{"type":"Feature","properties":{"id":"olle-7248523","course":"11","name_ko":"올레 11코스","name_en":"Olle Route 11","relation_id":7248523,"source_url":"https://www.openstreetmap.org/relation/7248523","license":"ODbL-1.0","fetched_at":"2026-09-10T16:03:33Z","source_updated_at":"2026-02-23T11:54:27Z","incomplete":true,"simplification_m":8,"license_url":"https://opendatacommons.org/licenses/odbl/1-0/"},"geometry":{"type":"MultiLineString","coordinates":[[[126.2527925,33.2191596],[126.2522399,33.219141],[126.2522183,33.2192854],[126.2519317,33.2192905],[126.2519384,33.2195133],[126.2512645,33.2197332],[126.2512088,33.219627],[126.2505073,33.2198867],[126.2504007,33.2202755],[126.2501137,33.2202732],[126.2500492,33.220694],[126.2478095,33.2207177],[126.2471861,33.2209111],[126.2470304,33.2207212],[126.2463561,33.2209084],[126.2464644,33.2211437],[126.2457751,33.2215383],[126.2452169,33.2214782],[126.2449547,33.2212834],[126.2446738,33.2213189],[126.2439384,33.2221262],[126.2432739,33.2222698],[126.2425572,33.2230973],[126.241944,33.223418],[126.2417311,33.2237411],[126.2413323,33.223821],[126.2412308,33.2240087],[126.2413812,33.2247633],[126.2416195,33.2250387],[126.2418633,33.2257983],[126.242383,33.22583],[126.2424627,33.2262831],[126.2428881,33.2262725],[126.2429799,33.2260746],[126.2434319,33.225947],[126.2443676,33.2259428],[126.2447334,33.2261151],[126.2454234,33.2268173],[126.2463332,33.227012],[126.2469876,33.2269806],[126.24717,33.2276468],[126.248239,33.2272869],[126.2495394,33.2291333],[126.2509557,33.228891],[126.2514429,33.2289916],[126.2515613,33.2291228],[126.2520117,33.2301485],[126.2526555,33.2308748],[126.2526497,33.2312178],[126.2535264,33.2335604],[126.2534517,33.2343573],[126.2537973,33.2346854],[126.2538253,33.2348885],[126.2536291,33.235076],[126.2536291,33.2364275],[126.253355,33.2375961],[126.2547069,33.2378114],[126.2546632,33.2366095],[126.2554366,33.2359215],[126.2560066,33.235754],[126.2567892,33.2353056],[126.2575021,33.2363079],[126.2582055,33.2364746],[126.2596853,33.2361685],[126.260226,33.2364882],[126.2604021,33.2362965],[126.262074,33.2370699],[126.2628212,33.2377886],[126.2633069,33.2386557],[126.2618498,33.2386635],[126.2616257,33.2393978],[126.2610746,33.239351],[126.2606917,33.2396869],[126.2596082,33.2398978],[126.2582633,33.2399915],[126.2582259,33.2402181],[126.2584781,33.2403353],[126.2584594,33.2409133],[126.2593747,33.2410539],[126.2593374,33.2414133],[126.259739,33.2421632],[126.2628691,33.243852],[126.2634699,33.2439866],[126.2639205,33.2447852],[126.2644487,33.2451481],[126.263991,33.2463159],[126.2634259,33.2468697],[126.2632407,33.2490723],[126.2621542,33.248763],[126.2620561,33.2485481],[126.2613136,33.2483685],[126.2605337,33.2479155],[126.2595577,33.2477749],[126.2577831,33.2472476],[126.2564661,33.2466813],[126.2564428,33.2464391],[126.2556536,33.2463415],[126.2556042,33.2469121],[126.2571598,33.2484734],[126.2578787,33.2506716],[126.2586176,33.2518873],[126.2582533,33.2523559],[126.2579918,33.2524809],[126.2581599,33.2530511],[126.2590379,33.2528089],[126.2588511,33.2530276],[126.2589632,33.2532151],[126.2598411,33.2533791],[126.2600186,33.2532073],[126.2603175,33.2534728],[126.2616715,33.2532106],[126.2626017,33.2527508],[126.2623475,33.2546072],[126.2626802,33.2560243],[126.2624707,33.2572867],[126.2625254,33.2594556],[126.2620414,33.2595536],[126.2617866,33.2594411],[126.2604558,33.2599443],[126.2589552,33.2603349],[126.2583394,33.2605539],[126.2583005,33.2607906],[126.2566155,33.2614594],[126.2566397,33.2642651],[126.2578622,33.2664541],[126.2582549,33.2666456],[126.2583057,33.2673023],[126.2581755,33.2675816],[126.2591004,33.2696585],[126.2588788,33.270702],[126.2595351,33.2709051],[126.2596425,33.2710612],[126.2594277,33.2719554],[126.2596605,33.2747497],[126.259294,33.2755762],[126.2597537,33.2774255],[126.2595966,33.2779009],[126.2588334,33.2781783],[126.258568,33.2788669],[126.2588415,33.2794792],[126.2588535,33.2799368],[126.2587129,33.2802265],[126.2581563,33.2807123],[126.2579224,33.2808131],[126.2567166,33.2805547],[126.256469,33.2813746],[126.2560388,33.2815293],[126.2555321,33.281096],[126.2551705,33.281109],[126.2544707,33.2815027],[126.2543578,33.2817215],[126.2549576,33.2819258],[126.2556414,33.2816386],[126.2562195,33.2819641],[126.2567008,33.2828103],[126.2567413,33.2833656],[126.2581561,33.285595],[126.2556681,33.2858809],[126.2551349,33.2858038],[126.2548781,33.2854494],[126.2538904,33.2846514],[126.2527692,33.2841222],[126.2518017,33.2832404],[126.2515078,33.282698],[126.2515821,33.2823376],[126.2525161,33.2819004],[126.2524688,33.2815369],[126.2499382,33.2788942],[126.2488444,33.2780779],[126.2484275,33.2782452],[126.2482144,33.2785263],[126.2475982,33.278721],[126.2462961,33.2786079],[126.2460218,33.277588],[126.2457242,33.277626],[126.2455774,33.2774742],[126.2450453,33.2775209],[126.2448632,33.2773856],[126.2445652,33.2774317],[126.2441794,33.2767619],[126.2436713,33.2763495],[126.2418597,33.275381],[126.2408799,33.2747087],[126.2367353,33.274624]]]}}
