{"type":"Feature","properties":{"id":"olle-6089589","course":"3-B","name_ko":"올레 3-B코스","name_en":"Olle Route 3-B","relation_id":6089589,"source_url":"https://www.openstreetmap.org/relation/6089589","license":"ODbL-1.0","fetched_at":"2026-09-10T16:03:33Z","source_updated_at":"2025-12-31T09:32:15Z","incomplete":true,"simplification_m":8,"license_url":"https://opendatacommons.org/licenses/odbl/1-0/"},"geometry":{"type":"MultiLineString","coordinates":[[[126.8673042,33.3601309],[126.8670542,33.3611722],[126.867283,33.3624347],[126.8670015,33.363189],[126.8671119,33.3640757],[126.8674754,33.3645427],[126.8690131,33.365526],[126.8698589,33.3663077],[126.8706601,33.3666372],[126.8709262,33.366559],[126.8711015,33.3666495],[126.8722795,33.3684953],[126.8723767,33.3696097],[126.8721474,33.3703501],[126.87161,33.3707823],[126.8707037,33.3708465],[126.8708604,33.3711165],[126.8706868,33.37181],[126.87089,33.3720748],[126.8714714,33.3725841],[126.871795,33.3727157],[126.8721106,33.3727869],[126.8723853,33.3726333],[126.8728545,33.3728683],[126.8739508,33.3738102],[126.8738992,33.3738818],[126.8749572,33.3751081],[126.875941,33.3759802],[126.8764828,33.3760289],[126.8778652,33.3769658],[126.880729,33.3793597],[126.881057,33.379863],[126.8812348,33.3806645],[126.8810351,33.3810914],[126.8801568,33.3821824],[126.8802124,33.3825631],[126.8804661,33.3828045],[126.8821397,33.3834189],[126.882906,33.3840117],[126.8840027,33.384636],[126.8856759,33.3850918],[126.887653,33.3859251],[126.8889661,33.386095],[126.8892517,33.3863175],[126.8897942,33.3872154],[126.8914639,33.3880022],[126.8928856,33.3881602],[126.894723,33.3888379],[126.8980232,33.388849],[126.8979344,33.3891461],[126.8980303,33.3895112],[126.8978653,33.3898365],[126.8981436,33.3899753],[126.8985238,33.3909601],[126.898844,33.3912462],[126.898977,33.3921733],[126.9001318,33.3920815],[126.900459,33.3918788],[126.9014721,33.3928325],[126.9013636,33.3932872],[126.9016706,33.3940687],[126.9022372,33.3942584],[126.9023087,33.3946826],[126.9028901,33.3950224],[126.9024603,33.3954572],[126.9022782,33.3961161],[126.9029025,33.3970011],[126.9030767,33.3965684],[126.9033709,33.3964826],[126.9039967,33.3967322],[126.9046222,33.3967613],[126.9050937,33.3970031],[126.9055257,33.3979257],[126.9062853,33.3977276],[126.9049099,33.3991947],[126.903981,33.4006147],[126.9034196,33.4009604]]]}}
