{"type":"Feature","properties":{"id":"olle-3793206","course":"6","name_ko":"올레 6코스","name_en":"Olle Route 6","relation_id":3793206,"source_url":"https://www.openstreetmap.org/relation/3793206","license":"ODbL-1.0","fetched_at":"2026-09-10T16:03:33Z","source_updated_at":"2026-06-04T09:07:24Z","incomplete":true,"simplification_m":8,"license_url":"https://opendatacommons.org/licenses/odbl/1-0/"},"geometry":{"type":"MultiLineString","coordinates":[[[126.5694526,33.2444491],[126.5698231,33.2447868],[126.5712221,33.2451161],[126.5721148,33.2451033],[126.5729654,33.2448383],[126.5735499,33.2448173],[126.5735656,33.2445132],[126.5738585,33.2444666],[126.5739914,33.2442452],[126.5746888,33.2443143],[126.5753746,33.2447669],[126.5763242,33.2449591],[126.5769465,33.245309],[126.577279,33.2452103],[126.5774946,33.2452874],[126.5773204,33.2454939],[126.5773011,33.2459485],[126.5776853,33.2461779],[126.577684,33.2465491],[126.577772,33.2465296],[126.5780984,33.2472131],[126.5778999,33.2474598],[126.5772116,33.2474446],[126.5771258,33.2475332],[126.5789801,33.2480962],[126.5818321,33.2483044],[126.5826899,33.2481139],[126.5825143,33.2471857],[126.5825812,33.2462282],[126.5818284,33.2440468],[126.5831021,33.244092],[126.5835581,33.2442419],[126.5847355,33.2440516],[126.5849611,33.2440891],[126.5852921,33.2444442],[126.5860328,33.2445797],[126.5873538,33.2438377],[126.5889654,33.2436015],[126.5899638,33.2432516],[126.5901154,33.2430987],[126.5905646,33.2430309],[126.5901757,33.2423223],[126.5902394,33.2420767],[126.5916561,33.2415049]],[[126.5916195,33.2414453],[126.5915965,33.2412452],[126.5924483,33.2411585],[126.5926843,33.240979],[126.5926843,33.240656],[126.5922767,33.2405304],[126.5919827,33.2396393],[126.591826,33.2396151],[126.591811,33.2393163],[126.5921329,33.2392983],[126.5928775,33.2388075],[126.5929483,33.2384907],[126.5933345,33.2384548],[126.593371,33.2381793],[126.5936285,33.2381793],[126.5936135,33.2379882],[126.5943151,33.2377306],[126.5946434,33.2373241],[126.5954508,33.2370709],[126.5958444,33.2371744]],[[126.5957481,33.2372128],[126.5970647,33.2367762]],[[126.5970615,33.2367734],[126.5980077,33.2362156],[126.5985783,33.2361855]],[[126.5985781,33.23619],[126.598848,33.2362033]],[[126.5988479,33.2361987],[126.5993997,33.2362873],[126.6000676,33.2367582],[126.6011232,33.2370321],[126.6014709,33.2372154],[126.6019651,33.237724]],[[126.6019614,33.2377277],[126.6019387,33.2379775]],[[126.6019451,33.2379781],[126.6025288,33.2387693],[126.6026572,33.2387741]],[[126.6026587,33.2387805],[126.6032635,33.2387424],[126.6038949,33.2388998],[126.6041832,33.239126],[126.6046591,33.2398474],[126.6049564,33.239991],[126.6057147,33.2399063],[126.6059278,33.2396076],[126.6064975,33.2393836],[126.607137,33.239375],[126.6076195,33.2395031],[126.6085369,33.240097],[126.6093932,33.24043],[126.6086682,33.2408785],[126.6085242,33.2412576],[126.6084911,33.2415852],[126.6087573,33.2421817],[126.6089163,33.2421507],[126.6090927,33.2414158]],[[126.6093932,33.24043],[126.611485,33.2411031],[126.6121703,33.2411654],[126.6127228,33.2413577],[126.6130294,33.2411299],[126.6132787,33.2411393],[126.615943,33.2418371],[126.6171792,33.2423372],[126.6183441,33.2431061],[126.6188956,33.2440638],[126.6185089,33.2447875],[126.6188234,33.2462401],[126.6186918,33.2475352],[126.6188602,33.2480338],[126.6192958,33.2483985],[126.6194662,33.2489088],[126.6193467,33.2498544]],[[126.6193493,33.2498466],[126.6197322,33.2505012],[126.6199974,33.2506557]],[[126.6199983,33.2506602],[126.6203767,33.2503642],[126.6212303,33.2504102],[126.6213696,33.2505105]],[[126.6214455,33.250529],[126.6229727,33.251709]],[[126.5921123,33.2428475],[126.5918803,33.2427506]],[[126.5560075,33.2437528],[126.5551088,33.2439151],[126.5548995,33.2436803],[126.5547954,33.2437318],[126.5538345,33.2423939],[126.5535509,33.2422761],[126.5527471,33.2422659]],[[126.5526757,33.2422308],[126.5515772,33.2426658],[126.5507615,33.2428396],[126.5504748,33.2431389],[126.5501075,33.2439069]],[[126.5501173,33.2439108],[126.5499967,33.2440455],[126.5475751,33.2442817],[126.5462566,33.244144],[126.5465457,33.2440008],[126.5475268,33.2440213],[126.5476837,33.2438872],[126.5478444,33.2434439],[126.5478116,33.2426849],[126.5484467,33.2415622],[126.5475668,33.2411028]],[[126.5440438,33.2396892],[126.5435475,33.2389775],[126.5430264,33.2399043],[126.5428878,33.2399604]]]}}
