{"type":"Feature","properties":{"id":"olle-9149725","course":"18","name_ko":"올레 18코스","name_en":"Olle Route 18","relation_id":9149725,"source_url":"https://www.openstreetmap.org/relation/9149725","license":"ODbL-1.0","fetched_at":"2026-09-10T16:03:33Z","source_updated_at":"2026-06-17T14:08:27Z","incomplete":true,"simplification_m":8,"license_url":"https://opendatacommons.org/licenses/odbl/1-0/"},"geometry":{"type":"MultiLineString","coordinates":[[[126.587064,33.5255763],[126.5865699,33.5256338],[126.5862823,33.5254864],[126.5860053,33.5256811],[126.5856084,33.5257165],[126.584903,33.5253475],[126.5842485,33.5255762],[126.5838959,33.5255586],[126.5830815,33.525025],[126.5826931,33.5249976],[126.5824377,33.5252636],[126.5818887,33.5252493],[126.5813751,33.524887],[126.5809573,33.5248524],[126.580308,33.5245476],[126.5799379,33.5245384],[126.5793558,33.5252392],[126.5783165,33.5255027],[126.5778865,33.5260632],[126.5771677,33.5263078],[126.5771533,33.52621],[126.576887,33.5262128],[126.5763279,33.526445],[126.5751875,33.5262836],[126.5743949,33.525292],[126.5733479,33.5248103],[126.5724074,33.5247679],[126.571861,33.5245195],[126.5708247,33.5244073],[126.5705961,33.5247426],[126.5700736,33.5247504],[126.5683717,33.5252547],[126.5684364,33.5259425],[126.5686691,33.526132],[126.5685876,33.5264903],[126.5682732,33.5265503],[126.5676093,33.5263665],[126.5674377,33.5261491],[126.5673561,33.5254612],[126.5672005,33.5252577],[126.5674457,33.5249075],[126.5673988,33.5247358],[126.5658735,33.524521],[126.5656772,33.5243573],[126.5655308,33.5238929],[126.565255,33.52389],[126.5650575,33.5240987],[126.5637912,33.5246567],[126.5645727,33.5251959],[126.5641578,33.5256832],[126.563932,33.526467],[126.5636761,33.5267404],[126.5622994,33.5272153],[126.5619428,33.5272083],[126.5613773,33.5268753],[126.5607611,33.5258416],[126.5609555,33.5258011],[126.5611267,33.5253971],[126.5613036,33.5253014],[126.5610715,33.5250001],[126.5612284,33.5247167],[126.5615716,33.5245466],[126.5614363,33.524256],[126.560141,33.523764],[126.559849,33.5238429],[126.5597051,33.5233227],[126.5599189,33.5226818],[126.5597959,33.5225986],[126.5590409,33.5224509],[126.5580633,33.522499],[126.5580062,33.5217334],[126.5581141,33.521524],[126.5579425,33.5212907],[126.5569671,33.521568],[126.5562676,33.5215191],[126.5559051,33.5205912],[126.5560459,33.5204738],[126.555853,33.519862],[126.5538217,33.520372],[126.5533456,33.5207387],[126.5526831,33.5210216],[126.5521848,33.5207586],[126.5515016,33.5198286],[126.5500787,33.5198141],[126.5496727,33.5199121],[126.5488305,33.5194939],[126.5482937,33.5193881],[126.5479145,33.5189472],[126.5475261,33.5187613],[126.5466287,33.5191299],[126.5466649,33.5188045],[126.5460393,33.5190259],[126.546103,33.5187508],[126.5459678,33.5187141],[126.5452158,33.5193809],[126.5449597,33.5194849],[126.5447343,33.5194357],[126.5452158,33.5190191],[126.5453888,33.5185238],[126.5452936,33.5184959],[126.5450924,33.5188106],[126.5447733,33.5188174],[126.5446593,33.5178373],[126.5435877,33.5173096],[126.5430103,33.5172891],[126.5428287,33.5171285],[126.5428367,33.5169646],[126.5424129,33.5168709],[126.5426062,33.5160269],[126.5413886,33.5155746],[126.5413832,33.5186278],[126.5403819,33.5182369],[126.5403104,33.518486],[126.5390528,33.518175],[126.5383874,33.5182199],[126.5366415,33.518032],[126.5363385,33.517909],[126.5362616,33.5188533],[126.5357544,33.5188283],[126.5351234,33.5185846]],[[126.5870528,33.5256718],[126.58792,33.5267932],[126.587812,33.5273528],[126.5883588,33.5282793],[126.5892487,33.5290636],[126.5891956,33.5292888],[126.5898764,33.5297332],[126.5902802,33.5297756],[126.5919299,33.5281323],[126.5938607,33.5294535],[126.5942134,33.5292521],[126.5941899,33.5291253],[126.5958804,33.5284885],[126.5972966,33.5289603],[126.5980906,33.5289302],[126.5992174,33.5291577],[126.5993958,33.5298598],[126.5997061,33.5301433],[126.5997639,33.5305067],[126.6002333,33.5313441],[126.6014533,33.5319569],[126.602013,33.5319007],[126.6023623,33.5317152],[126.6029004,33.531696],[126.6028746,33.5319614],[126.6030042,33.5320349],[126.6064265,33.5318702],[126.6082137,33.5325304],[126.609977,33.5325301],[126.610118,33.5327878],[126.6095487,33.5337682],[126.6087253,33.5338364],[126.6083169,33.5336916],[126.6078669,33.5341819],[126.6078943,33.5349101],[126.6076571,33.5353997],[126.6078328,33.5356032],[126.6080661,33.5355931],[126.6086127,33.5346888],[126.6088499,33.5346741],[126.6101495,33.5358186],[126.6111426,33.5355727],[126.6120036,33.5355046],[126.6121665,33.5357138],[126.6120324,33.5359134],[126.6120893,33.5361595],[126.6128501,33.5367485],[126.6132552,33.5376923],[126.6136024,33.5378119],[126.6146205,33.5378757],[126.6148496,33.537624],[126.6155621,33.5376159],[126.6156388,33.5373636],[126.6158299,33.5372405],[126.6161002,33.5371547],[126.6164294,33.537241],[126.6165342,33.5367892],[126.6167961,33.5367752],[126.6176262,33.5368889],[126.6178744,33.5373258],[126.6178586,33.5376168],[126.6180141,33.5376386],[126.6181651,33.5378613],[126.6184843,33.5378166],[126.6186896,33.5376455],[126.6187615,33.5373496],[126.6193023,33.5374238],[126.6194352,33.5377729],[126.6197218,33.5379688],[126.6193986,33.5382192],[126.6195044,33.5383654],[126.6203267,33.5384525],[126.6206455,33.5379394],[126.6213699,33.5380491],[126.6221689,33.5379891],[126.6221291,33.5382591],[126.6226785,33.5385493],[126.6228073,33.5384796],[126.6228376,33.537864],[126.6239019,33.5376977],[126.6236905,33.5367479],[126.6262814,33.5358131],[126.6268039,33.5365146],[126.6269331,33.536903],[126.6272671,33.5370645],[126.6274047,33.5373223],[126.6278648,33.5373654],[126.6291351,33.5370225],[126.629725,33.5373279],[126.6300973,33.5373257],[126.6303738,33.5371888],[126.6309397,33.5375093],[126.6310926,33.5374724],[126.6311793,33.5365875],[126.6325036,33.5359866],[126.6325814,33.535781],[126.6330213,33.5356334],[126.6332897,33.5359612],[126.6335726,33.5360455],[126.6342414,33.5359494],[126.6348856,33.5356108],[126.6350507,33.5357827]],[[126.6354115,33.5373711],[126.635045,33.5379722],[126.6357022,33.5386552],[126.6357529,33.5388802],[126.6368714,33.5395067],[126.6356697,33.5401112],[126.6353998,33.5411844],[126.6343906,33.5413456],[126.6340786,33.542036],[126.6344921,33.5420346],[126.6345132,33.5427974],[126.6341499,33.5435929],[126.6359674,33.5433217],[126.6366561,33.5434802],[126.6373514,33.5425855],[126.6414382,33.5394053],[126.64191,33.5396831]]]}}
