{"type":"Feature","properties":{"id":"olle-7248520","course":"8","name_ko":"올레 8코스","name_en":"Olle Route 8","relation_id":7248520,"source_url":"https://www.openstreetmap.org/relation/7248520","license":"ODbL-1.0","fetched_at":"2026-09-10T16:03:33Z","source_updated_at":"2026-08-20T05:56:37Z","incomplete":true,"simplification_m":8,"license_url":"https://opendatacommons.org/licenses/odbl/1-0/"},"geometry":{"type":"MultiLineString","coordinates":[[[126.4058296,33.2580793],[126.407918,33.2572661],[126.4119296,33.2560806],[126.414127,33.2551765],[126.4121004,33.2509094],[126.411816,33.250589],[126.4110376,33.2503016],[126.4074712,33.2502069],[126.4074905,33.2493759],[126.406768,33.247893],[126.4067135,33.2471201],[126.4057638,33.2458804],[126.4056517,33.2453679]],[[126.4005201,33.2514004],[126.3995397,33.2513752],[126.3992574,33.2515412],[126.3997436,33.252066],[126.4018451,33.256049],[126.4026839,33.2568111],[126.4055137,33.2580654],[126.4121636,33.2559386],[126.4138407,33.2551984],[126.4139378,33.2549788],[126.4120093,33.2509272],[126.4117224,33.2506164],[126.4111084,33.2503815],[126.4111248,33.250246],[126.41082,33.2502087],[126.4074605,33.2501297],[126.4074665,33.2493801],[126.4068778,33.2482638],[126.4067158,33.2471884],[126.4061673,33.2463684],[126.4059673,33.2456695],[126.4060451,33.2449274],[126.4067281,33.2444514],[126.4072647,33.244754],[126.4077485,33.244873],[126.4092062,33.2449457],[126.4113972,33.2452518],[126.4130702,33.2452286],[126.4134369,33.2449297],[126.4135695,33.2444917],[126.4139099,33.244337],[126.4145307,33.2443982],[126.4146689,33.2440059],[126.4149843,33.2438264],[126.4150817,33.2436173],[126.4156663,33.2434885],[126.4158772,33.2435631],[126.4159171,33.244147],[126.4166752,33.2443045],[126.4175941,33.2447306],[126.4178892,33.2458823],[126.4183124,33.2463794],[126.4185006,33.2456987],[126.4188496,33.2454315],[126.4186375,33.2452563],[126.4186941,33.2451642],[126.4203795,33.2437727],[126.4208713,33.2435628],[126.4222378,33.243446],[126.422224,33.2433202],[126.4224246,33.2433062],[126.4223346,33.2429561],[126.4208074,33.2418432],[126.4207355,33.241635],[126.4212549,33.2411984],[126.4213103,33.2408858],[126.4217022,33.2407816],[126.4224212,33.2400095],[126.4234037,33.2396329],[126.4237223,33.2392683],[126.4237801,33.2387919],[126.4247802,33.2378851],[126.42658,33.237737],[126.4273397,33.2371592],[126.4278896,33.2364013],[126.4283352,33.2361956],[126.4300556,33.2364022],[126.4321721,33.2352563],[126.4339649,33.2354578],[126.4350483,33.2367717],[126.4361588,33.2370067],[126.4367592,33.2381272],[126.4366944,33.2388867],[126.4376885,33.2390957],[126.4388517,33.2390977],[126.4392868,33.2388556],[126.439269,33.2385783],[126.4398907,33.2381909],[126.4403215,33.2381598],[126.4406907,33.2384133],[126.440981,33.2384518],[126.4412747,33.2383275],[126.4415055,33.2376871],[126.4417783,33.2374743],[126.4421538,33.2372948],[126.4424818,33.2373551],[126.4435221,33.2386201],[126.4434841,33.2388539],[126.443109,33.2389486],[126.4427447,33.2393261],[126.4426858,33.2398271],[126.4435399,33.2419361],[126.4433503,33.242321],[126.4432672,33.2433305],[126.4443394,33.2448817],[126.4443582,33.2453101],[126.4449498,33.2455403],[126.4471351,33.245268],[126.447513,33.2456131],[126.4482205,33.245738],[126.4491541,33.245568],[126.4491469,33.2459072],[126.4497642,33.2459407],[126.4503606,33.2452742],[126.4507747,33.245214],[126.4508727,33.2454129],[126.4507381,33.2454622],[126.4509793,33.2460102],[126.4514011,33.246095],[126.4516927,33.2467776],[126.4526683,33.2462338],[126.4526262,33.2458267],[126.4529776,33.2453176],[126.4536089,33.2450339],[126.4546415,33.2441465],[126.4553397,33.2439831],[126.4557977,33.243666],[126.4568506,33.2438419],[126.4570927,33.2440173],[126.4586964,33.2435474]],[[126.4207286,33.2416751],[126.4205787,33.2417126],[126.4206089,33.2419268],[126.4194915,33.2425253],[126.4194,33.2426899],[126.4195813,33.242899],[126.4198195,33.2427716],[126.4200444,33.2428311],[126.4206086,33.2436525]],[[126.4175451,33.2447218],[126.4175192,33.2447118]],[[126.417621,33.2450325],[126.4176672,33.2450737]],[[126.4057439,33.2581048],[126.405524,33.2581894]],[[126.3992628,33.2515221],[126.3991568,33.2514324]],[[126.3992628,33.2513836],[126.3990992,33.2514262],[126.3981905,33.2507755],[126.3978363,33.2496307],[126.3974389,33.2491629],[126.3969086,33.2488972],[126.3962929,33.247489],[126.3965833,33.2466964],[126.3963208,33.2464677],[126.3953447,33.2461175],[126.394811,33.244869],[126.3941529,33.2451509],[126.3941297,33.2450176],[126.3937133,33.2447764],[126.3932285,33.2448162],[126.392446,33.2444399],[126.39222,33.2444741],[126.3917211,33.2442246],[126.3916068,33.24398],[126.3910176,33.2437963],[126.3904994,33.2432901],[126.3900487,33.2431518],[126.3897118,33.2428036],[126.3892054,33.2427764],[126.3886784,33.2424365],[126.3885014,33.2417024],[126.3885695,33.2410935],[126.3895561,33.2401513],[126.3902212,33.2399765],[126.3901245,33.2398849],[126.3904504,33.239526],[126.3904372,33.2389313],[126.3908511,33.2383922],[126.391114,33.2382514],[126.3901207,33.2376624],[126.3890882,33.2373209],[126.3886317,33.2366355],[126.3883327,33.2364402],[126.3860476,33.2354053],[126.3851773,33.2347821],[126.3841452,33.2336398],[126.3830058,33.2339384],[126.3822072,33.2344774],[126.3808949,33.2347509],[126.3798535,33.2347899],[126.3794285,33.2347665],[126.3786571,33.2344289],[126.37807,33.2336891],[126.3776125,33.2334801]],[[126.3686241,33.232788],[126.3680995,33.2330211],[126.3671505,33.2319888],[126.3655514,33.2321126],[126.3644287,33.2328758],[126.3642257,33.233117],[126.3640067,33.233948],[126.3634717,33.2341485],[126.3629664,33.2347077],[126.3627315,33.2353088],[126.3630188,33.2356458],[126.3630005,33.2359357],[126.3619799,33.2362537],[126.361966,33.2364823],[126.3623827,33.2368255],[126.3624117,33.2371029],[126.3619001,33.2373976],[126.3613787,33.2370749]]]}}
