{"type":"Feature","properties":{"id":"olle-3793143","course":"7","name_ko":"올레 7코스","name_en":"Olle Route 7","relation_id":3793143,"source_url":"https://www.openstreetmap.org/relation/3793143","license":"ODbL-1.0","fetched_at":"2026-09-10T16:03:33Z","source_updated_at":"2026-08-20T05:56:37Z","incomplete":true,"simplification_m":8,"license_url":"https://opendatacommons.org/licenses/odbl/1-0/"},"geometry":{"type":"MultiLineString","coordinates":[[[126.5442804,33.2400077],[126.5448303,33.2403443],[126.545513,33.2399471],[126.5457686,33.2399402],[126.5461841,33.2402918],[126.5466842,33.2401899],[126.5470184,33.2400008],[126.5471228,33.239668],[126.5468296,33.2395419],[126.5467329,33.2391031],[126.5474389,33.2385349],[126.5473867,33.2393451],[126.5483201,33.240117],[126.5478324,33.2405994],[126.5475645,33.2411046]],[[126.5428878,33.2399604],[126.5428062,33.2402306],[126.5423005,33.2405445],[126.5420375,33.2404616],[126.5414217,33.2414354],[126.5410542,33.2415656],[126.5407523,33.2418643],[126.5403704,33.2418963],[126.5400111,33.2417266],[126.5396014,33.241852],[126.5396135,33.2420756],[126.5394436,33.2421595],[126.5388945,33.24181],[126.5385024,33.2418725],[126.5381561,33.2417909],[126.5379273,33.2415973],[126.5375428,33.2414296],[126.537376,33.2414888],[126.5373079,33.2413372],[126.5362602,33.2409163],[126.5358826,33.2409113],[126.5353413,33.2405178],[126.5351626,33.2405111],[126.5346793,33.2400178],[126.5336497,33.2397889],[126.5333788,33.2395716],[126.5324243,33.2395651],[126.5320463,33.239772],[126.531713,33.2396746],[126.5296675,33.2396611],[126.5292405,33.2395498],[126.5282942,33.239715],[126.5278436,33.2401816],[126.5261354,33.2406072]],[[126.5261483,33.2406056],[126.5237759,33.2409093],[126.5228945,33.2411779],[126.5221401,33.2411186],[126.5214303,33.2413849],[126.5205589,33.2414582],[126.5203122,33.2413789],[126.5197219,33.2408176],[126.5191344,33.2400144],[126.5195351,33.2392693],[126.5192686,33.2389933],[126.5182091,33.2384048],[126.5180253,33.2375519],[126.5173074,33.2372117],[126.5168037,33.2371446],[126.5164312,33.2375878],[126.5158511,33.2374865],[126.5153891,33.2376283]],[[126.5153115,33.2373802],[126.5148962,33.2356736],[126.5138039,33.2348193],[126.5136219,33.2340111],[126.5131964,33.233832],[126.5129275,33.2334887]],[[126.5132995,33.2339006],[126.5124539,33.2330013],[126.5115843,33.2329682],[126.5080776,33.2307874],[126.5066919,33.2308168],[126.5061742,33.2309302],[126.5056913,33.2311972],[126.5045397,33.231242],[126.5041487,33.2308894],[126.5038646,33.2311013],[126.5032489,33.2310433],[126.5031511,33.2312696],[126.502808,33.2313963],[126.5024985,33.2317018],[126.5018821,33.2317602],[126.5006688,33.2313709],[126.5002512,33.2318503],[126.500337,33.2321016],[126.499734,33.2322487],[126.4979981,33.2331714],[126.4963582,33.2330716],[126.4960669,33.2329272],[126.4952952,33.2321485],[126.4950283,33.2322883],[126.4946287,33.2322951],[126.494595,33.2319492],[126.4939304,33.2319505],[126.4933397,33.2324821],[126.4921175,33.232865],[126.4920586,33.2333948],[126.4923001,33.2337236],[126.4919053,33.2337746],[126.4910463,33.2344513],[126.489767,33.2345064],[126.4902081,33.2340435],[126.4902875,33.2333912],[126.4905256,33.2330748],[126.4912541,33.2330084],[126.4908665,33.2324677],[126.4905072,33.2325],[126.4882274,33.2333345],[126.4877253,33.2336195],[126.4874914,33.233924],[126.4868598,33.2334891],[126.4866202,33.2334498],[126.485183,33.2337551],[126.4833636,33.2336461],[126.4828006,33.2333808],[126.4825054,33.2329494],[126.4820848,33.232787],[126.4813623,33.2328352],[126.4812333,33.2324555],[126.481023,33.2323564],[126.4795312,33.2327013],[126.479559,33.2335485],[126.4790578,33.2336038],[126.4788444,33.2333997],[126.4780425,33.2331152],[126.4775239,33.2334048],[126.4763909,33.2336962],[126.4758918,33.2334415],[126.4743657,33.2331729],[126.4740047,33.2329168],[126.4717114,33.2332474],[126.4712769,33.2331908],[126.4708826,33.2328274],[126.469681,33.2321496],[126.4695577,33.2317244],[126.4692065,33.2313197],[126.4692949,33.2307962],[126.4691984,33.2305943],[126.4686825,33.2301542],[126.4681056,33.2301127],[126.4678006,33.2298517],[126.4654701,33.2313282],[126.4634965,33.2317913],[126.4629908,33.2320911],[126.4628166,33.2324168],[126.462883,33.2327422],[126.4631624,33.233187],[126.4634557,33.2332956],[126.4637608,33.2340997],[126.4636104,33.2343735],[126.4634591,33.2342688],[126.4634797,33.2345641],[126.4633144,33.2346476],[126.4631162,33.2353813],[126.4632011,33.2354869],[126.4631059,33.2359968],[126.4633116,33.2361804],[126.4628642,33.2362248],[126.462383,33.2375033],[126.4620598,33.2378775],[126.4613162,33.2382048],[126.4610775,33.238982],[126.4607274,33.2393171],[126.4586045,33.2400129],[126.4580418,33.2411327],[126.4581094,33.2414163],[126.458943,33.2411327],[126.4597584,33.2411148],[126.4604268,33.2412009],[126.4608045,33.2414142],[126.4603162,33.2418459],[126.4601401,33.2423851],[126.4604936,33.2432851],[126.4597892,33.2435078],[126.4586393,33.2435448],[126.4570927,33.2440173],[126.4568506,33.2438419],[126.4557977,33.243666],[126.4553397,33.2439831],[126.4546415,33.2441465],[126.4536089,33.2450339],[126.4529776,33.2453176],[126.4526262,33.2458267],[126.4526683,33.2462338],[126.4516927,33.2467776],[126.4514011,33.246095],[126.4509793,33.2460102],[126.4507381,33.2454622],[126.4508727,33.2454129],[126.4507747,33.245214],[126.4503606,33.2452742],[126.4497642,33.2459407],[126.4491469,33.2459072],[126.4491541,33.245568],[126.4482205,33.245738],[126.447513,33.2456131],[126.4471351,33.245268],[126.4451546,33.2455579],[126.4443582,33.2453101],[126.4443394,33.2448817],[126.4432672,33.2433305],[126.4433503,33.242321],[126.4435399,33.2419361],[126.4426858,33.2398271],[126.4427447,33.2393261],[126.443109,33.2389486],[126.4434841,33.2388539],[126.4435221,33.2386201],[126.4424818,33.2373551],[126.4421538,33.2372948],[126.4417783,33.2374743],[126.4415055,33.2376871],[126.4412747,33.2383275],[126.440981,33.2384518],[126.4406907,33.2384133],[126.4403215,33.2381598],[126.4398907,33.2381909],[126.439269,33.2385783],[126.4392868,33.2388556],[126.4388517,33.2390977],[126.4376885,33.2390957],[126.4366944,33.2388867],[126.4367592,33.2381272],[126.4361588,33.2370067],[126.4350483,33.2367717],[126.4339649,33.2354578],[126.4321721,33.2352563],[126.4300556,33.2364022],[126.4283352,33.2361956],[126.4278896,33.2364013],[126.4273397,33.2371592],[126.42658,33.237737],[126.4247802,33.2378851],[126.4237801,33.2387919],[126.4237223,33.2392683],[126.4234037,33.2396329],[126.4224212,33.2400095],[126.4217022,33.2407816],[126.4213103,33.2408858],[126.4212549,33.2411984],[126.4207355,33.241635],[126.4208074,33.2418432],[126.4223346,33.2429561],[126.4224246,33.2433062],[126.422224,33.2433202],[126.4222378,33.243446],[126.4208713,33.2435628],[126.4203795,33.2437727],[126.4186941,33.2451642],[126.4186375,33.2452563],[126.4188496,33.2454315],[126.4185006,33.2456987],[126.4183124,33.2463794],[126.4178892,33.2458823],[126.4175941,33.2447306],[126.4166752,33.2443045],[126.4162529,33.2442256]],[[126.420086,33.2428872],[126.4199509,33.2427684],[126.4195813,33.242899],[126.4194245,33.2426118],[126.4206089,33.2419268],[126.4205787,33.2417126],[126.4207286,33.2416751]]]}}
