{"type":"Feature","properties":{"id":"olle-3809942","course":"4","name_ko":"올레 4코스","name_en":"Olle Route 4","relation_id":3809942,"source_url":"https://www.openstreetmap.org/relation/3809942","license":"ODbL-1.0","fetched_at":"2026-09-10T16:03:33Z","source_updated_at":"2025-08-02T11:39:02Z","incomplete":true,"simplification_m":8,"license_url":"https://opendatacommons.org/licenses/odbl/1-0/"},"geometry":{"type":"MultiLineString","coordinates":[[[126.7196984,33.2781237],[126.7211903,33.2777721],[126.7218398,33.2778365],[126.7224496,33.278102],[126.7229942,33.2787473],[126.7235238,33.2790904],[126.7263001,33.279684],[126.7277878,33.2795316],[126.7287899,33.2796208],[126.7301805,33.2793468],[126.7306804,33.2794202],[126.7310777,33.2795939],[126.7317272,33.2802371],[126.732652,33.2816412],[126.7330559,33.2818922],[126.7334927,33.2819939],[126.7348469,33.2817774],[126.7354001,33.2815843],[126.7370593,33.2802245],[126.7381748,33.2803227],[126.7390943,33.2808649],[126.7393765,33.2814323],[126.7398467,33.2814425],[126.7396571,33.2800817],[126.7392664,33.2791025],[126.7394186,33.278977],[126.7411096,33.2790278],[126.7427144,33.2789204],[126.743966,33.2793842],[126.7443222,33.2792578],[126.7447024,33.2793321],[126.7452791,33.2800861],[126.7457914,33.2810884],[126.7461964,33.2814517],[126.7467839,33.2815178],[126.7472912,33.282485],[126.7486855,33.2834336],[126.749504,33.284982],[126.7494991,33.2856706],[126.7491352,33.2864313],[126.7491795,33.2869996],[126.7493709,33.2872473],[126.7517044,33.288555],[126.7523387,33.2883834],[126.7527477,33.2876469],[126.7530629,33.2874361],[126.7534438,33.2874204],[126.7543445,33.2876421],[126.757114,33.2891088],[126.7574782,33.2895947],[126.7585286,33.2902348],[126.7595467,33.2913719],[126.7605583,33.2914977],[126.7611565,33.2919932],[126.7623688,33.2919001],[126.7633317,33.2923844],[126.7635235,33.2931343],[126.7641284,33.2939482],[126.7642155,33.2948606],[126.7655177,33.2967853],[126.7660287,33.2972371],[126.7658577,33.2984157],[126.7669474,33.2994408],[126.7680256,33.2998847],[126.7676327,33.3003611],[126.7675562,33.3008262],[126.7672893,33.301028],[126.7674141,33.3011659],[126.76717,33.3022005],[126.7669749,33.3025021],[126.7667745,33.3038665],[126.7674081,33.3044585],[126.7677058,33.3053479],[126.7676977,33.3059595],[126.768214,33.3062653],[126.7687603,33.3063669],[126.7688706,33.3069022],[126.7685921,33.3073084],[126.7687532,33.3074398],[126.7687055,33.3078865],[126.7681083,33.3085383],[126.768466,33.308698],[126.7692201,33.3087856],[126.7693556,33.3097769],[126.7697716,33.3102121],[126.7704825,33.3117632],[126.7704988,33.3120419],[126.7713402,33.3120896],[126.7719135,33.3119414],[126.772356,33.3114371],[126.7734244,33.3110618],[126.7739572,33.3111308],[126.7744911,33.3106049],[126.7758194,33.3108246],[126.776146,33.3105248],[126.776531,33.3104114],[126.7775416,33.3094408],[126.778161,33.3092464],[126.7788112,33.3087392],[126.7795526,33.3086182],[126.7801925,33.3089628],[126.7807433,33.3089628],[126.7824262,33.3086388],[126.7820291,33.3072495],[126.7821946,33.3072434],[126.7822475,33.3070027],[126.782676,33.3066664],[126.7835662,33.3063101],[126.784341,33.3063482],[126.7849675,33.3062115],[126.7853445,33.3063722],[126.7861576,33.306393],[126.7862735,33.3065914],[126.7865838,33.3065682],[126.78755,33.3059682],[126.7875443,33.3050011],[126.7890352,33.3046389],[126.7897656,33.304092],[126.7908047,33.3041269],[126.7913534,33.3036557],[126.7916575,33.3036168],[126.79229,33.3038373],[126.7929122,33.3041702],[126.7931463,33.3044911],[126.7937844,33.3048716],[126.7940634,33.3048997],[126.7952985,33.3042873],[126.7954839,33.3043264],[126.7961957,33.3038183],[126.7967515,33.3037384],[126.7978349,33.3033565],[126.8016813,33.3040973],[126.8020449,33.3038821],[126.8031139,33.3039709],[126.8031787,33.3043509],[126.8034944,33.3046473],[126.8046598,33.3049794],[126.8049438,33.3051737],[126.8052786,33.3058421],[126.8055578,33.3061048],[126.8060834,33.3058758],[126.8063839,33.3053557],[126.806452,33.3046923],[126.806198,33.3042398],[126.8063514,33.3035408],[126.8070631,33.302952],[126.8076319,33.3028589],[126.8082171,33.3030313],[126.810473,33.3043099],[126.8115363,33.3057538],[126.8126212,33.3063226],[126.8141013,33.3067974],[126.8154626,33.3078],[126.8165683,33.3079914],[126.8173357,33.307653],[126.8178726,33.3075575],[126.8194474,33.3078512],[126.8198537,33.3078056],[126.8202633,33.3075601],[126.8211124,33.3066505],[126.8219076,33.3061811],[126.8224358,33.3060355],[126.8253648,33.306496],[126.8265415,33.3068115],[126.827424,33.3068189],[126.8278242,33.3069321],[126.828762,33.3074854],[126.8295287,33.3083805],[126.8300752,33.3087331],[126.8310564,33.3097522],[126.8322174,33.3102237],[126.8352472,33.3119023],[126.8362702,33.312025],[126.8366314,33.3121721],[126.8370974,33.3127023],[126.8370548,33.3137837],[126.8368277,33.3142823],[126.8369423,33.3145304],[126.8377884,33.3149392],[126.838594,33.3156398],[126.8399571,33.3163346],[126.8413113,33.3164905],[126.8417417,33.3166464],[126.8423573,33.3172536],[126.8427345,33.3190064],[126.8430483,33.319467],[126.8453179,33.3208204],[126.8455316,33.3207182],[126.8460009,33.320932],[126.8470197,33.3208836],[126.8470002,33.3212458],[126.8473201,33.3214606],[126.8470932,33.3223425],[126.8466703,33.3230801],[126.8469807,33.3237756],[126.847311,33.3241642],[126.8473155,33.3246859],[126.8470074,33.3250062],[126.8453824,33.3247003],[126.8449458,33.3250266],[126.8448113,33.3249672],[126.8447341,33.325249],[126.8439206,33.3250132],[126.8425979,33.3254284]],[[126.7515789,33.2887315],[126.7511535,33.2882612],[126.7496599,33.2874174]],[[126.7390196,33.2808552],[126.7386889,33.2802485],[126.7382167,33.2802779]]]}}
