{"type":"Feature","properties":{"id":"olle-5539069","course":"21","name_ko":"올레 21코스 · OSM 일부 구간","name_en":"Olle Route 21 · partial OSM section","relation_id":5539069,"source_url":"https://www.openstreetmap.org/relation/5539069","license":"ODbL-1.0","license_url":"https://opendatacommons.org/licenses/odbl/1-0/","fetched_at":"2026-09-10T17:07:35Z","source_updated_at":"2023-04-19T09:59:00Z","incomplete":true,"simplification_m":8},"geometry":{"type":"MultiLineString","coordinates":[[[126.8637197,33.5218912],[126.8650211,33.5211671],[126.8653057,33.5214542],[126.8647632,33.5223849],[126.8660293,33.5228919],[126.8664959,33.5226879],[126.8668858,33.5228141],[126.867724,33.5216795],[126.8684257,33.5218905],[126.8697492,33.5231469],[126.8702328,33.5243673]],[[126.873245,33.5242746],[126.8734869,33.5240095],[126.8736268,33.5233805],[126.8748028,33.5228059]]]}}
