{"type":"Feature","properties":{"id":"olle-7248521","course":"9","name_ko":"올레 9코스","name_en":"Olle Route 9","relation_id":7248521,"source_url":"https://www.openstreetmap.org/relation/7248521","license":"ODbL-1.0","fetched_at":"2026-09-10T16:03:33Z","source_updated_at":"2025-03-29T05:41:20Z","incomplete":true,"simplification_m":8,"license_url":"https://opendatacommons.org/licenses/odbl/1-0/"},"geometry":{"type":"MultiLineString","coordinates":[[[126.3685106,33.2528651],[126.3675347,33.2525397],[126.3672754,33.2526347],[126.3666102,33.2524193],[126.366342,33.2524788],[126.3652034,33.2519315],[126.3650398,33.2520099],[126.3644081,33.2519494],[126.3643169,33.2513999],[126.3636357,33.2513191],[126.3633433,33.2515793],[126.3629812,33.2514268],[126.3625306,33.2516937],[126.3622731,33.2519494],[126.3622382,33.2522948],[126.3619083,33.2527188],[126.3614389,33.2526762],[126.3612626,33.2524922],[126.3601769,33.2528029],[126.3601488,33.2524205],[126.3597277,33.2517049],[126.3592952,33.2514307],[126.3589498,33.2509759],[126.3583919,33.2509782],[126.3582632,33.2507633],[126.3580901,33.2512277],[126.357483,33.2508606],[126.3569127,33.2508256],[126.3562772,33.2502345],[126.3552468,33.2496305],[126.3549277,33.2487265],[126.3543338,33.2479825],[126.3542533,33.2475978],[126.3539971,33.2472524],[126.3525124,33.2465831],[126.3522481,33.2462814],[126.3523521,33.246152],[126.3529249,33.2460153],[126.354028,33.2459973],[126.3543177,33.2457696],[126.3540749,33.243383],[126.3545161,33.2428949],[126.3537809,33.2410313],[126.3533534,33.2405551],[126.3531683,33.2400504],[126.3537557,33.2397139],[126.354775,33.239623],[126.3556212,33.2397576],[126.355758,33.2399662],[126.3561603,33.2400874],[126.3571782,33.2400739],[126.3572775,33.2401412],[126.3571702,33.2405484],[126.3572963,33.2409141],[126.3574451,33.2405473],[126.3581023,33.2400616],[126.3583461,33.2396233],[126.3582753,33.2384935],[126.3584483,33.2379304],[126.3593387,33.2368449],[126.3596689,33.2366683],[126.3601798,33.2369801],[126.3606356,33.2369949],[126.3609751,33.236776],[126.3619001,33.2373976]],[[126.3686347,33.2528533],[126.3691503,33.2528466],[126.3698718,33.2531752],[126.3704579,33.2531786]],[[126.3698718,33.2531752],[126.3696492,33.253755],[126.3690189,33.2543629],[126.3684422,33.2543337],[126.3673867,33.2539502],[126.3663179,33.2538919],[126.3657881,33.2540943],[126.3651404,33.2545805],[126.3649607,33.2550021],[126.3650438,33.2554171],[126.3646428,33.2558522],[126.3643679,33.2567113],[126.3644913,33.2570634],[126.3647488,33.2569961],[126.3647595,33.2574761],[126.3640474,33.2577856],[126.3640434,33.2579045],[126.3643545,33.2580907],[126.3644055,33.2583194],[126.3642472,33.258999],[126.3639978,33.2594095],[126.3631958,33.2594992],[126.3622942,33.2593288],[126.3606182,33.2583329],[126.3587458,33.2582493],[126.3586615,33.2582017],[126.358801,33.2580178],[126.3580312,33.2583127],[126.3576248,33.2581961],[126.3562784,33.2570623],[126.3551619,33.2565817],[126.35466,33.2569005],[126.3538647,33.2567714],[126.3536338,33.257202],[126.3529728,33.2579203],[126.3528451,33.2577531],[126.3528948,33.2574178],[126.3516891,33.2571509],[126.3515882,33.2570366],[126.3517105,33.2564385],[126.3514845,33.255692],[126.3509394,33.2552993],[126.3506068,33.2544369],[126.3500302,33.254142],[126.3501636,33.2540203],[126.350124,33.2531483],[126.3497693,33.2525954],[126.348797,33.2517459],[126.3487038,33.2511514],[126.348903,33.2508279],[126.348801,33.2505469],[126.3486609,33.2504505],[126.3483196,33.2504903],[126.3470189,33.2497693],[126.3468913,33.2501847],[126.3455857,33.2506518],[126.3453393,33.2509585],[126.3445169,33.2512478],[126.3438,33.2516563]],[[126.3470189,33.2497693],[126.3464051,33.2496503],[126.3462717,33.2497697],[126.3462392,33.2496158],[126.3460317,33.2498348],[126.3457393,33.2498936],[126.3452974,33.249431],[126.3446523,33.2493065],[126.3451472,33.2490239],[126.3451361,33.2487019],[126.3456005,33.2482483],[126.3455509,33.2480335],[126.3447641,33.2477137],[126.3443089,33.2472936],[126.3440864,33.2473735],[126.3439871,33.2472086],[126.3432334,33.2471189],[126.3428073,33.2467565],[126.342379,33.2466347],[126.3421274,33.245584],[126.3421104,33.2449152],[126.3419436,33.2447254],[126.3420046,33.2446148],[126.3422853,33.2447344],[126.3424185,33.2445128],[126.3422849,33.2441335],[126.342404,33.2440734],[126.3415378,33.2437673],[126.3411225,33.2411171],[126.3412325,33.2407727],[126.3415678,33.2404519],[126.3431664,33.2400683],[126.3434467,33.239761],[126.3438143,33.2389316],[126.3418618,33.2388676],[126.3385551,33.2398443],[126.3383052,33.2394843],[126.3383891,33.2390827],[126.3388095,33.2389043],[126.3385728,33.2384702],[126.3386123,33.2380353],[126.3373799,33.2378679],[126.3367917,33.2376134],[126.3360583,33.2394242],[126.3351949,33.2402938],[126.3339184,33.2407072]]]}}
