{"type":"Feature","properties":{"id":"olle-5232945","course":"1","name_ko":"올레 1코스","name_en":"Olle Route 1","relation_id":5232945,"source_url":"https://www.openstreetmap.org/relation/5232945","license":"ODbL-1.0","fetched_at":"2026-09-10T16:03:33Z","source_updated_at":"2026-06-04T03:19:21Z","incomplete":true,"simplification_m":8,"license_url":"https://opendatacommons.org/licenses/odbl/1-0/"},"geometry":{"type":"MultiLineString","coordinates":[[[126.895977,33.4772407],[126.8955464,33.4770821],[126.8949654,33.4773628],[126.8912169,33.475827],[126.8895407,33.4753372],[126.8893448,33.4751466],[126.8881706,33.4750374],[126.885891,33.4745157],[126.8851009,33.4740361],[126.8843335,33.4744604],[126.8843068,33.4755629],[126.8840788,33.4757089],[126.8843148,33.4758644],[126.8840991,33.4760238],[126.8861043,33.4765333],[126.8875787,33.4771918],[126.8883851,33.4783978],[126.888375,33.4789132],[126.8881268,33.4788838],[126.8871264,33.4777979],[126.8867035,33.4785518],[126.8857558,33.4788584],[126.8853749,33.479204],[126.8849578,33.4792354],[126.883885,33.4800866],[126.8835957,33.4805753],[126.8841244,33.4808353],[126.8854169,33.4804697],[126.8856592,33.4807392],[126.8856798,33.4811705],[126.8849767,33.4816023],[126.8840742,33.4829208],[126.8834393,33.482944],[126.8829202,33.4834604],[126.8824118,33.4835347],[126.8822122,33.4839454],[126.8818577,33.4839846],[126.8795498,33.4833231],[126.8794177,33.4833265],[126.8793307,33.4836666],[126.8794729,33.4838339],[126.8800034,33.4839905],[126.8808045,33.4850266],[126.8816194,33.4853247],[126.8818655,33.4861911],[126.8822421,33.4868742],[126.8819277,33.4875156],[126.8815916,33.4877938],[126.8815739,33.4879845],[126.8822118,33.4877492],[126.8826992,33.4878616],[126.882962,33.487786],[126.8830396,33.4873947],[126.8832924,33.4872519],[126.884647,33.4870885],[126.8856629,33.4879502],[126.8864817,33.4881646],[126.8865353,33.4886344],[126.8867008,33.4888165],[126.887376,33.4888002],[126.8881677,33.489734],[126.8882684,33.4905009],[126.8899458,33.4910835],[126.8925858,33.4917396],[126.8931596,33.4916985],[126.8937854,33.4918091],[126.8937499,33.4920584],[126.8941092,33.4922755],[126.8946178,33.4922755],[126.8958168,33.4926519],[126.8963049,33.4926597],[126.896324,33.4928615],[126.8964846,33.4927426],[126.896911,33.4929841],[126.8976526,33.4928812],[126.8982456,33.4932157],[126.89866,33.493169],[126.8989004,33.4933963],[126.8998929,33.4930885],[126.8999538,33.4926492],[126.9001032,33.4927085],[126.9003067,33.4926042],[126.9019856,33.4914618],[126.9043261,33.4907584],[126.9047744,33.4903303],[126.905335,33.4893936],[126.9050205,33.4890561],[126.9050528,33.4888138],[126.9042431,33.488464],[126.9033377,33.4877285],[126.902246,33.4860926],[126.9017558,33.4837745],[126.901733,33.4821822],[126.9019198,33.4816447],[126.9034611,33.4797756],[126.904139,33.4792513],[126.908348,33.4782403],[126.9095516,33.4777214],[126.9099977,33.4771703],[126.9102891,33.4758858],[126.9112297,33.4745704],[126.9115707,33.4734625],[126.9125959,33.472369],[126.9137835,33.4720155],[126.9164067,33.4719902],[126.9167904,33.4717686],[126.917257,33.4711761],[126.9206394,33.4692131],[126.9214553,33.4696344],[126.9218903,33.4702211],[126.9222947,33.4704106],[126.9225828,33.4702213],[126.9226038,33.4698693],[126.9232777,33.4689181],[126.9242208,33.4689182],[126.9241963,33.4688488],[126.9284916,33.468732],[126.9287965,33.4688704],[126.9289508,33.4687898],[126.9297427,33.4696462],[126.9299693,33.4701295],[126.9308194,33.4711917],[126.9314219,33.4711687],[126.9323499,33.4715877],[126.933231,33.4717862],[126.9340944,33.4711403],[126.9344315,33.4707767],[126.9350288,33.4693766],[126.9359959,33.4690374],[126.9359049,33.468226],[126.9360702,33.4673379],[126.9359721,33.4668682],[126.9361617,33.4657594],[126.935956,33.4645595],[126.9363403,33.4637458],[126.9361114,33.4636495],[126.935946,33.4632296],[126.9364576,33.462881],[126.936315,33.4624788],[126.9361022,33.4625127],[126.9359994,33.462208],[126.9358114,33.4622517],[126.935775,33.4621207],[126.9355598,33.4621885],[126.9352956,33.4614332],[126.9340832,33.4618157],[126.9339072,33.4613482],[126.9339944,33.4608765],[126.9318231,33.4602705],[126.9303716,33.4594189],[126.9292347,33.4581255],[126.9291419,33.4581626],[126.9286859,33.4577547],[126.9276653,33.4566927],[126.9279066,33.4565356],[126.9278651,33.4563033],[126.9270471,33.4555514],[126.9264758,33.4547669],[126.9253498,33.4538174],[126.9247001,33.452941],[126.9243277,33.4520352],[126.9242014,33.4520061]]]}}
