{"type":"Feature","properties":{"id":"olle-9149294","course":"16","name_ko":"올레 16코스","name_en":"Olle Route 16","relation_id":9149294,"source_url":"https://www.openstreetmap.org/relation/9149294","license":"ODbL-1.0","fetched_at":"2026-09-10T16:03:33Z","source_updated_at":"2025-11-25T12:38:43Z","incomplete":true,"simplification_m":8,"license_url":"https://opendatacommons.org/licenses/odbl/1-0/"},"geometry":{"type":"MultiLineString","coordinates":[[[126.3380979,33.466936],[126.3390729,33.4673224],[126.3393965,33.4675687],[126.3399546,33.4685544],[126.3403516,33.4698144],[126.3407913,33.4702761],[126.341887,33.4709517],[126.345243,33.4719925],[126.3461182,33.4720458],[126.3467284,33.4727495],[126.3472983,33.4730784],[126.3485932,33.4729786],[126.3503292,33.4730459],[126.3510239,33.4727019],[126.3513241,33.4727485],[126.3520378,33.4733905],[126.3524227,33.474357],[126.3523945,33.4750276],[126.3526252,33.4752782],[126.352805,33.4751775],[126.3531053,33.4766295],[126.3535881,33.4773454],[126.3538564,33.4775915],[126.355514,33.4783835],[126.3578529,33.4790994],[126.3582552,33.4793142],[126.3598683,33.4794363],[126.359894,33.4793262],[126.3645317,33.4781326],[126.3659196,33.4783517],[126.3669656,33.4783024],[126.367545,33.4780843],[126.3694235,33.478298],[126.3696304,33.4787074],[126.3707985,33.4792327],[126.3709391,33.4794912],[126.3714701,33.4797373],[126.3722051,33.4804129],[126.3734516,33.4807439],[126.3743041,33.4816235],[126.3755879,33.4823524],[126.3772248,33.4838747],[126.3776232,33.4836547],[126.3778574,33.4831793],[126.3779529,33.4826217],[126.3776972,33.482411],[126.3780808,33.481499],[126.3787903,33.4816269],[126.3792172,33.4814167],[126.3806021,33.4816864],[126.3814495,33.4778416],[126.3813217,33.4777587],[126.3812921,33.4774698],[126.3814465,33.4767957],[126.3813571,33.4767211],[126.3814199,33.4761072],[126.3811693,33.475969],[126.3814326,33.4747153],[126.3818336,33.4745875],[126.3822183,33.4748004],[126.382411,33.4747373],[126.3825762,33.4742792],[126.3836251,33.4743335],[126.3835836,33.4740957],[126.3837889,33.473706],[126.3839517,33.4736411],[126.3840543,33.4732366],[126.383892,33.4730945],[126.3844757,33.4730634],[126.3845715,33.4729212],[126.3840366,33.4725783],[126.3849521,33.4724849],[126.3851692,33.4719229],[126.3851228,33.4712404],[126.3854869,33.4712362],[126.3854362,33.4707402],[126.3861389,33.4702278],[126.3861639,33.4700169],[126.386475,33.4696856],[126.3872362,33.4692829],[126.3869359,33.4684638],[126.387243,33.4685452],[126.3873044,33.4679448],[126.3878152,33.4675923],[126.3883881,33.4675518],[126.3892997,33.4677209],[126.3894725,33.4671898],[126.3899169,33.467146],[126.3899773,33.4667076],[126.3896564,33.4663827],[126.3892188,33.4653903],[126.3896352,33.465043],[126.3898269,33.4647028],[126.3904671,33.4644015],[126.3916822,33.4648345],[126.3926353,33.4649568],[126.3929392,33.4641213],[126.393425,33.4643068],[126.3939936,33.4638571],[126.3941026,33.4635177],[126.3945131,33.4633464],[126.3945085,33.4628714],[126.394275,33.4621662],[126.3944688,33.4613208],[126.3943142,33.46031],[126.3944417,33.4599734],[126.3954185,33.4587274],[126.395599,33.458686],[126.3958255,33.4588278],[126.3962537,33.45956],[126.3971704,33.4594832],[126.397424,33.460558],[126.3977678,33.4609388],[126.3980368,33.4602745],[126.3985518,33.460033],[126.3987429,33.4596256],[126.3992596,33.4591945],[126.3994649,33.4587486],[126.3997976,33.4584445],[126.3999427,33.4577949],[126.4008417,33.456853],[126.4012558,33.455911],[126.4013108,33.4550297],[126.4022231,33.4556037],[126.4039255,33.4563041],[126.4043947,33.4563919],[126.4054972,33.4557116],[126.4056742,33.4552394],[126.4074515,33.454964],[126.4077178,33.453659],[126.4082328,33.4533845],[126.4089874,33.4534971],[126.4091306,33.4529494],[126.4095838,33.4532258],[126.4104479,33.4533868],[126.4107567,33.4537193],[126.4112192,33.4536407],[126.4111926,33.4538039],[126.4116727,33.4539581],[126.4118202,33.4539312],[126.4119811,33.4531203],[126.4129408,33.4526639],[126.4129651,33.4525162],[126.4131501,33.4524331],[126.4133187,33.452666],[126.4139726,33.4525567],[126.4143537,33.4526072],[126.4146387,33.4532484],[126.4148835,33.4532659],[126.4161087,33.4525733],[126.4162055,33.4523791],[126.4161316,33.4518515],[126.4164497,33.4517493],[126.4167498,33.4518293],[126.4169669,33.4523446],[126.4169023,33.4530387],[126.4171725,33.4530216],[126.417095,33.4534037],[126.4175843,33.4539761],[126.4177356,33.4540052],[126.4179728,33.4536031],[126.4181524,33.4535382],[126.4191099,33.4537606],[126.4190169,33.4540822],[126.4194203,33.4543243],[126.4193047,33.4549719],[126.4207102,33.4544574],[126.4223249,33.4531908],[126.4231054,33.4522934],[126.4254379,33.4520356],[126.4260979,33.452691],[126.4267987,33.4527766],[126.4272729,33.4530689],[126.4274456,33.4534837],[126.4276797,33.4536791],[126.4277779,33.4543958],[126.4282959,33.4548641],[126.4285547,33.4549413],[126.4288166,33.4553603],[126.4292264,33.4554322],[126.4294945,33.4557613],[126.4301917,33.4561122],[126.4302493,33.4558605],[126.4309919,33.4557613],[126.4307852,33.4562169],[126.431432,33.4567117],[126.4314177,33.4573059],[126.4320695,33.4571968],[126.4323637,33.4574267],[126.4324861,33.4578345],[126.4338046,33.4582085],[126.4341832,33.458678],[126.4338889,33.4591302],[126.4344012,33.4593025],[126.4359039,33.4591449],[126.4362699,33.4597315],[126.4363087,33.4601798],[126.4361418,33.4606053],[126.4389709,33.4609415]],[[126.3869359,33.4684638],[126.3859261,33.468066],[126.3856272,33.4680504],[126.3851091,33.4683386],[126.384178,33.4685011],[126.3846226,33.4689347],[126.3842994,33.4701866],[126.3847634,33.4704483],[126.3847715,33.4707191],[126.3851228,33.4712404]]]}}
