{"type":"Feature","properties":{"id":"olle-3878188","course":"5","name_ko":"올레 5코스","name_en":"Olle Route 5","relation_id":3878188,"source_url":"https://www.openstreetmap.org/relation/3878188","license":"ODbL-1.0","fetched_at":"2026-09-10T16:03:33Z","source_updated_at":"2026-06-04T07:34:26Z","incomplete":true,"simplification_m":8,"license_url":"https://opendatacommons.org/licenses/odbl/1-0/"},"geometry":{"type":"MultiLineString","coordinates":[[[126.7196984,33.2781237],[126.7194471,33.2778009],[126.7190034,33.2775376],[126.718435,33.2777894],[126.7177837,33.2768197],[126.716983,33.2763198],[126.7166243,33.2763073],[126.715192,33.2767061],[126.7134333,33.2764409],[126.7129595,33.2762269],[126.7124608,33.2755451],[126.7120602,33.2753064],[126.7108664,33.2749276],[126.7097694,33.2747594],[126.7092209,33.2744633],[126.70895,33.2745911],[126.7085382,33.2741965],[126.7080474,33.2743131],[126.7073017,33.2741023],[126.7066137,33.2741583],[126.7057313,33.2740507],[126.7049881,33.2735213],[126.7040182,33.2732199],[126.7036148,33.2728898],[126.7023187,33.2727033],[126.7019325,33.2723875],[126.700822,33.2720316],[126.7004763,33.2720323],[126.7002335,33.2717731],[126.699352,33.2713346],[126.6981718,33.2713561],[126.6978792,33.2710914],[126.6960219,33.2709031],[126.6953085,33.2709266],[126.6944405,33.2707745],[126.6933416,33.2708243],[126.6931026,33.2707224],[126.6928753,33.2703917],[126.69248,33.2704809],[126.6918372,33.2703549],[126.6910382,33.2705166],[126.690962,33.2702937],[126.6901845,33.2703952],[126.6895858,33.2700847],[126.6873114,33.2700648],[126.6860303,33.2698293],[126.6849632,33.2702279],[126.6830303,33.2704235],[126.6825218,33.2708325],[126.6818248,33.2708119],[126.6816034,33.2710923],[126.6811872,33.2711588],[126.6811543,33.2715028],[126.6806721,33.2723167],[126.6798405,33.2728042],[126.6788676,33.272555],[126.6781099,33.2728184],[126.6777143,33.2727007],[126.6774595,33.2724316],[126.6760696,33.2724045],[126.6747464,33.2725953],[126.6744286,33.2729261],[126.67442,33.2731329],[126.6736642,33.2731273],[126.6735002,33.2723182],[126.6736937,33.271335],[126.6740536,33.2708037],[126.6741311,33.2700516],[126.6736028,33.2699157],[126.6721491,33.2702106],[126.6710688,33.271242],[126.6706322,33.2712636],[126.6703986,33.2711579],[126.6700029,33.2713148],[126.669201,33.2712128],[126.6687034,33.271298],[126.6679779,33.2706342],[126.6667011,33.2708831],[126.6655231,33.2707226],[126.6650768,33.2709523],[126.6648611,33.2714774],[126.6641576,33.2716728],[126.6635313,33.2716754],[126.6630968,33.271945],[126.6628903,33.272346],[126.6623358,33.2716198],[126.6621159,33.2714561],[126.661955,33.2714819],[126.6619121,33.2716905],[126.6624062,33.2721421],[126.6625601,33.2724824],[126.6630406,33.2727483],[126.6627917,33.2740804],[126.6622328,33.2743508],[126.6623839,33.2745654],[126.6623833,33.2749266],[126.6595499,33.2747922],[126.6595327,33.2743214],[126.6581633,33.2740355],[126.6576417,33.2743198],[126.6574953,33.2745992],[126.6573488,33.2745942],[126.6570151,33.2744617],[126.6570606,33.2742758],[126.657917,33.273716],[126.6578421,33.2731578],[126.6582728,33.2729503],[126.6585117,33.2726321],[126.6591275,33.2709096],[126.658592,33.2708104],[126.6579102,33.2694972],[126.6573711,33.2690644],[126.6560595,33.2693369],[126.6554265,33.2692337],[126.6546178,33.2688144],[126.654304,33.2688502],[126.6535516,33.2691956],[126.6533062,33.2695802],[126.6534174,33.2711558],[126.6528951,33.2708702],[126.6518117,33.2706707],[126.6509617,33.2702983],[126.6502592,33.2701742],[126.6489872,33.2695603],[126.6488746,33.269306],[126.6489607,33.2688964],[126.6486888,33.2686893],[126.6478289,33.2686265],[126.6468139,33.2679252],[126.6438863,33.2670371],[126.6435309,33.2666592],[126.6419524,33.265992],[126.6410346,33.2649354],[126.638706,33.2633884]],[[126.6389942,33.2600188],[126.638259,33.2610927],[126.6379653,33.2619483],[126.6372226,33.2625365],[126.638429,33.2630151],[126.6386672,33.2633074],[126.6391135,33.2627535],[126.6403181,33.261952],[126.6405642,33.2615513],[126.6404735,33.2613401],[126.6401302,33.2613834],[126.6398194,33.2612426],[126.6393828,33.2601933],[126.6389942,33.2600188],[126.6392596,33.2598225],[126.6394378,33.2581209],[126.638834,33.2576923],[126.6375423,33.2573811],[126.636581,33.2574744],[126.6360771,33.2573656],[126.6346253,33.2567138],[126.6346125,33.2569602],[126.6335313,33.257255],[126.6322191,33.2582539],[126.6296196,33.2589508],[126.6292629,33.25874],[126.6290345,33.25875],[126.6282242,33.2592026],[126.6258766,33.2584035],[126.6243048,33.2582914],[126.6236315,33.2583678],[126.623594,33.2575097],[126.6228752,33.2561113],[126.6226928,33.2551984],[126.6227101,33.2532059],[126.6230727,33.2524507],[126.6235144,33.252158],[126.6229727,33.251709]]]}}
