{"type":"Feature","properties":{"id":"olle-4869085","course":"2","name_ko":"올레 2코스","name_en":"Olle Route 2","relation_id":4869085,"source_url":"https://www.openstreetmap.org/relation/4869085","license":"ODbL-1.0","fetched_at":"2026-09-10T16:03:33Z","source_updated_at":"2026-04-09T09:32:26Z","incomplete":true,"simplification_m":8,"license_url":"https://opendatacommons.org/licenses/odbl/1-0/"},"geometry":{"type":"MultiLineString","coordinates":[[[126.9242014,33.4520061],[126.9237504,33.4519517],[126.9235444,33.451608],[126.9233285,33.4517192],[126.9241928,33.4533714],[126.923742,33.4537588],[126.9237931,33.4551479],[126.923385,33.455276],[126.9226945,33.4565026],[126.9225065,33.4570834],[126.9224451,33.4583961],[126.9221267,33.4587427],[126.9216338,33.4586123],[126.9211902,33.4591439],[126.921352,33.4595273],[126.9217332,33.4599202],[126.9214033,33.460333],[126.9214289,33.4606898],[126.9212868,33.4608401],[126.9214732,33.4609568],[126.921231,33.4613934],[126.92109,33.4621109],[126.9211092,33.4622726],[126.9213655,33.4623728],[126.9213959,33.4626119],[126.9210436,33.4626493],[126.9202204,33.4623193],[126.9190303,33.4622779],[126.9196871,33.4630298],[126.9203566,33.4630584],[126.9209477,33.4638242],[126.9207358,33.4657049],[126.9202021,33.4660741],[126.9189897,33.4651957],[126.9185606,33.4650095],[126.9187168,33.4647362],[126.9189251,33.4646887],[126.9184936,33.4646943],[126.9178908,33.4650158],[126.9174475,33.4648801],[126.9166286,33.4636919],[126.9163238,33.4636053],[126.9162233,33.4634419],[126.9155352,33.4632834],[126.914797,33.4627121],[126.914294,33.4626405],[126.9144672,33.4621699],[126.9148861,33.462003],[126.9153944,33.461191],[126.9155448,33.460313],[126.9155201,33.4588541],[126.9157702,33.4581553],[126.9161402,33.4581569],[126.9167268,33.4574799],[126.9179793,33.4567014],[126.9178026,33.4559663],[126.9174266,33.4554854],[126.9175127,33.4551632],[126.9181027,33.4548892],[126.9186248,33.455047],[126.9193145,33.4550498],[126.9200283,33.4547698],[126.9202085,33.4543688],[126.9198738,33.4543258],[126.9193182,33.4545856],[126.9187166,33.4542565],[126.9178922,33.4541015],[126.9178365,33.453792],[126.9180305,33.4533428],[126.9179175,33.45228],[126.9176486,33.4516531],[126.9159923,33.4509503],[126.9147243,33.4507188],[126.9144896,33.4508525],[126.9144132,33.4506953],[126.9122277,33.4503736],[126.9121622,33.4504715],[126.9119363,33.4504572],[126.9119208,33.450317],[126.9076996,33.4496624],[126.9076319,33.4494901],[126.9070219,33.4493948],[126.9066246,33.4488286],[126.9058399,33.4482218],[126.9044232,33.4481789],[126.9028809,33.447376],[126.9023102,33.447201],[126.9024103,33.446888],[126.9037347,33.4459362],[126.9035684,33.4459104],[126.903622,33.445728],[126.9033699,33.4457152],[126.9031583,33.4454808],[126.9019785,33.4452408]],[[126.9015639,33.4448611],[126.9019565,33.4445818],[126.9017702,33.4441865],[126.9019858,33.4427009],[126.9013891,33.4423653],[126.9012523,33.4419993],[126.9012563,33.4412261],[126.9009961,33.4407549],[126.9010618,33.4406397],[126.9016291,33.4405098],[126.9018866,33.4401719],[126.9014762,33.4399364],[126.9014346,33.439661],[126.9009924,33.4397087],[126.9005603,33.4389733],[126.9004852,33.4387047],[126.9006553,33.4378544],[126.8998307,33.4377356],[126.8998387,33.4374558],[126.8995733,33.437261],[126.8989214,33.4373596],[126.8982964,33.4368357],[126.8982911,33.4363993],[126.8977091,33.4358017],[126.8976662,33.4356875],[126.8982628,33.435252],[126.8987941,33.4341632],[126.8960454,33.4333632],[126.8941393,33.4334287],[126.8945721,33.4323973],[126.895086,33.4318202],[126.8953574,33.4300114],[126.8958221,33.4299197],[126.8959611,33.4292741],[126.8972248,33.4280949],[126.8967898,33.4278995],[126.8960168,33.4278569],[126.8950687,33.4272599],[126.8945462,33.4271106],[126.893618,33.4272377],[126.8926687,33.4269517],[126.89254,33.4263677],[126.892654,33.4260119],[126.892997,33.425778],[126.8929548,33.4256727],[126.8927242,33.4255306],[126.8923393,33.4256157],[126.8914984,33.4255037],[126.8910397,33.4251736],[126.8909016,33.4247947],[126.8904684,33.4246206],[126.8902407,33.4243274],[126.8903323,33.4236311],[126.8907152,33.4233507],[126.8904633,33.4231013],[126.8903887,33.4227631],[126.8907601,33.4221217],[126.8907152,33.4216376],[126.8910626,33.4213718],[126.8911477,33.4211154],[126.8916245,33.4209889],[126.8920577,33.4205669],[126.8920563,33.4202518],[126.8918659,33.4199188],[126.8920121,33.4195797],[126.8926774,33.4192834],[126.89373,33.4201198],[126.8942487,33.4197363],[126.8943677,33.4195035],[126.8942852,33.4179387],[126.8948193,33.4165609],[126.8947198,33.4160653],[126.8945575,33.4160374],[126.8946297,33.4157525],[126.8945154,33.4154207],[126.8939789,33.4152873],[126.8935329,33.4153939],[126.8934055,33.4152538],[126.893777,33.4150232],[126.8940503,33.414646],[126.894819,33.4147948],[126.8948969,33.4146335],[126.8954476,33.4146597],[126.8960324,33.4142125]],[[126.8949587,33.4135698],[126.8953025,33.4132287],[126.8955451,33.412745],[126.8961675,33.4122486],[126.8964974,33.4111902],[126.8969279,33.4106635],[126.8967904,33.4103382],[126.8973007,33.4095504],[126.8981302,33.4096296],[126.898668,33.4108487],[126.898904,33.4107748],[126.8990489,33.4109212],[126.8994253,33.410869],[126.9000309,33.4102209],[126.9005307,33.4103266],[126.9010296,33.4102257],[126.9015841,33.4096982],[126.9022871,33.4093556],[126.9024488,33.4091472],[126.9025935,33.4084409],[126.9034401,33.4082143],[126.904952,33.4065311],[126.9053466,33.4064947],[126.9055525,33.4063487],[126.9059533,33.4057003],[126.9052944,33.4050653],[126.9047797,33.4049512],[126.9047899,33.4050314],[126.9041729,33.4051942]]]}}
